{"version": 0.6, "generator": "Overpass API 0.7.61.5 4133829e", "osm3s": {"timestamp_osm_base": "2023-12-01T19:46:15Z", "copyright": "The data included in this document is from www.openstreetmap.org. The data is made available under ODbL."}, "elements": [{"type": "node", "id": 147897795, "lat": 60.1231951, "lon": 29.9416964, "tags": {"amenity": "restaurant", "name": "\u041a\u0430\u043b\u0438\u043f\u0441\u043e", "website": "https://restaurant-kalipso.ru/"}}, {"type": "node", "id": 276792102, "lat": 60.104587, "lon": 29.9772705, "tags": {"amenity": "restaurant", "name": "\u0422\u0430\u0439\u043c\u0410\u0443\u0442"}}, {"type": "node", "id": 360714153, "lat": 60.1207184, "lon": 29.9424779, "tags": {"amenity": "cafe"}}, {"type": "node", "id": 662432999, "lat": 60.104502, "lon": 29.9738778, "tags": {"amenity": "cafe", "name": "\u041c\u0443\u0440\u0430\u0432\u0435\u0439\u043d\u0438\u043a"}}, {"type": "node", "id": 697338873, "lat": 59.9880597, "lon": 29.7692344, "tags": {"addr:postcode": "197760", "amenity": "cafe", "name": "\u0413\u043e\u043b\u043b\u0430\u043d\u0434\u0441\u043a\u0430\u044f \u041a\u0443\u0445\u043d\u044f", "name:de": "Holl\u00e4ndische K\u00fcche", "name:ru": "\u0413\u043e\u043b\u043b\u0430\u043d\u0434\u0441\u043a\u0430\u044f \u041a\u0443\u0445\u043d\u044f", "opening_hours": "Mo-Su 11:00-23:00", "phone": "+7 812 9215005", "website": "http://www.gollandkitchen.ru"}}, {"type": "node", "id": 737240109, "lat": 60.0495664, "lon": 29.9759384}, {"type": "node", "id": 737240123, "lat": 60.0498369, "lon": 29.9760471}, {"type": "node", "id": 737240136, "lat": 60.0498886, "lon": 29.9755315}, {"type": "node", "id": 737240147, "lat": 60.0497193, "lon": 29.9755742}, {"type": "node", "id": 885066114, "lat": 59.9962462, "lon": 29.7671974, "tags": {"amenity": "cafe", "indoor_seating": "yes", "name": "\u0421\u0442\u0440\u0435\u043a\u043eZ\u0430", "opening_hours": "Mo-Su 09:00-23:00", "outdoor_seating": "yes"}}, {"type": "node", "id": 894120909, "lat": 59.9945216, "lon": 29.7733776, "tags": {"amenity": "cafe", "cuisine": "coffee_shop", "indoor_seating": "yes", "name": "\u041f\u0430\u043b\u044c\u043c\u0430", "opening_hours": "Tu-Su 09:00-23:00; Mo off", "outdoor_seating": "no", "payment:credit_cards": "yes", "payment:debit_cards": "yes", "wheelchair": "no"}}, {"type": "node", "id": 895348294, "lat": 59.9934289, "lon": 29.778574, "tags": {"addr:housenumber": "31/33", "addr:postcode": "197762", "addr:street": "\u0421\u043e\u0432\u0435\u0442\u0441\u043a\u0430\u044f \u0443\u043b\u0438\u0446\u0430", "amenity": "cafe", "name": "\u041a\u0430\u0444\u0435-\u043c\u0430\u0433\u0430\u0437\u0438\u043d \u041a\u0430\u0440\u0430\u0432\u0430\u0439.", "name:en": "\u041a\u0430\u0444\u0435-\u043c\u0430\u0433\u0430\u0437\u0438\u043d \u041a\u0430\u0440\u0430\u0432\u0430\u0439", "opening_hours": "Mo-Su 08:00-19:00", "payment:credit_cards": "yes", "payment:debit_cards": "yes", "phone": "+7 812 3115459", "website": "https://www.karavay.spb.ru/"}}, {"type": "node", "id": 895536252, "lat": 59.9919701, "lon": 29.7873998, "tags": {"amenity": "bar", "name": "\u041d\u0430 \u0442\u0440\u043e\u0438\u0445"}}, {"type": "node", "id": 911913399, "lat": 59.9869207, "lon": 29.7749829, "tags": {"amenity": "cafe", "name": "\u041d\u0430\u0443\u0442\u0438\u043b\u0443\u0441"}}, {"type": "node", "id": 911913407, "lat": 59.9901613, "lon": 29.7738029, "tags": {"amenity": "cafe", "indoor_seating": "yes", "name": "Georgia", "outdoor_seating": "yes", "payment:credit_cards": "yes", "payment:debit_cards": "yes", "wheelchair": "limited"}}, {"type": "node", "id": 914764730, "lat": 59.9892535, "lon": 29.7634304, "tags": {"amenity": "cafe", "name": "\u0417\u043e\u043b\u043e\u0442\u043e\u0439 \u042f\u043a\u043e\u0440\u044c"}}, {"type": "node", "id": 915470159, "lat": 59.9956817, "lon": 29.7644216, "tags": {"amenity": "cafe", "contact:vk": "https://vk.com/kashtan_kafe", "name": "\u041a\u0430\u0448\u0442\u0430\u043d", "opening_hours": "Mo-Su 11:00-23:00", "phone": "+7 812 4351102"}}, {"type": "node", "id": 915470328, "lat": 59.9947715, "lon": 29.7640705, "tags": {"amenity": "restaurant", "brand": "\u0415\u0432\u0440\u0430\u0437\u0438\u044f", "brand:wikidata": "Q66087936", "contact:email": "ads@evrasia.spb.ru", "contact:phone": "+7 812 3114186", "contact:website": "https://evrasia.spb.ru/", "cuisine": "international", "internet_access": "wlan", "name": "\u0415\u0432\u0440\u0430\u0437\u0438\u044f", "opening_hours": "Fr-Sa 11:00-02:00;Mo,Tu,We,Th,Su 11:00-22:00", "operator": "\u0415\u0432\u0440\u0430\u0437\u0438\u044f-\u041a\u0440\u043e\u043d\u0448\u0442\u0430\u0434\u0442"}}, {"type": "node", "id": 915470484, "lat": 60.000816, "lon": 29.765246, "tags": {"amenity": "cafe", "name": "\u0422\u0440\u0430\u043a\u0442\u0438\u0440"}}, {"type": "node", "id": 915470490, "lat": 59.9946408, "lon": 29.7639683, "tags": {"amenity": "cafe", "contact:vk": "https://vk.com/club135160694", "cuisine": "russian", "name": "\u0421\u043a\u0430\u0437\u043a\u0430", "name:en": "Skazka", "opening_hours": "Mo-Su 10:00-23:00", "phone": "+7 812 3113905"}}, {"type": "node", "id": 915470527, "lat": 59.9981553, "lon": 29.7637643, "tags": {"amenity": "cafe"}}, {"type": "node", "id": 1003010981, "lat": 60.0281719, "lon": 29.9970036}, {"type": "node", "id": 1003010994, "lat": 60.0283249, "lon": 29.9968237}, {"type": "node", "id": 1003011005, "lat": 60.0281897, "lon": 29.9967364}, {"type": "node", "id": 1003011017, "lat": 60.028236, "lon": 29.9970054}, {"type": "node", "id": 1003011033, "lat": 60.0282867, "lon": 29.9970392}, {"type": "node", "id": 1003011038, "lat": 60.0282084, "lon": 29.9970374}, {"type": "node", "id": 1003011040, "lat": 60.0281514, "lon": 29.996943}, {"type": "node", "id": 1003011052, "lat": 60.0282235, "lon": 29.9970392}, {"type": "node", "id": 1003011057, "lat": 60.0281781, "lon": 29.9969626}, {"type": "node", "id": 1015540578, "lat": 60.1445217, "lon": 29.9297688}, {"type": "node", "id": 1015540599, "lat": 60.1445287, "lon": 29.9293583}, {"type": "node", "id": 1015540651, "lat": 60.1443884, "lon": 29.9298781}, {"type": "node", "id": 1015540666, "lat": 60.1446, "lon": 29.9295087}, {"type": "node", "id": 1015540686, "lat": 60.1444093, "lon": 29.9298064}, {"type": "node", "id": 1015540770, "lat": 60.1446239, "lon": 29.9297038}, {"type": "node", "id": 1015540790, "lat": 60.1442987, "lon": 29.9297804}, {"type": "node", "id": 1015540827, "lat": 60.1350122, "lon": 29.9410319, "tags": {"addr:city": "\u0421\u043e\u043b\u043d\u0435\u0447\u043d\u043e\u0435", "addr:housenumber": "7", "addr:street": "41-\u0439 \u043a\u0438\u043b\u043e\u043c\u0435\u0442\u0440 \u041f\u0440\u0438\u043c\u043e\u0440\u0441\u043a\u043e\u0433\u043e \u0448\u043e\u0441\u0441\u0435", "amenity": "restaurant", "cuisine": "european", "name": "\u0427\u0435\u0440\u0435\u043c\u0448\u0430", "opening_hours": "12:00-23:00", "phone": "+7 812 4261622", "website": "https://oldmillspb.ru/restaurants/cheremsha"}}, {"type": "node", "id": 1015540836, "lat": 60.144439, "lon": 29.9292606}, {"type": "node", "id": 1039277106, "lat": 60.2063417, "lon": 29.701496}, {"type": "node", "id": 1039277266, "lat": 60.2063936, "lon": 29.7015358}, {"type": "node", "id": 1039278033, "lat": 60.2063651, "lon": 29.7016863}, {"type": "node", "id": 1039278831, "lat": 60.2063132, "lon": 29.7016465}, {"type": "node", "id": 1070737741, "lat": 60.1904143, "lon": 29.6650804}, {"type": "node", "id": 1070737929, "lat": 60.1904179, "lon": 29.6652384}, {"type": "node", "id": 1070737947, "lat": 60.1903359, "lon": 29.6649773}, {"type": "node", "id": 1070738122, "lat": 60.190472, "lon": 29.6652334}, {"type": "node", "id": 1070738300, "lat": 60.1904665, "lon": 29.6649907}, {"type": "node", "id": 1070738412, "lat": 60.1903335, "lon": 29.6650721}, {"type": "node", "id": 1074178594, "lat": 60.185211, "lon": 29.8108594}, {"type": "node", "id": 1075371040, "lat": 60.1532993, "lon": 29.9004096}, {"type": "node", "id": 1075371412, "lat": 60.1535086, "lon": 29.9011042}, {"type": "node", "id": 1075371565, "lat": 60.1533109, "lon": 29.9011155}, {"type": "node", "id": 1076686727, "lat": 60.1104142, "lon": 29.9512765}, {"type": "node", "id": 1076686728, "lat": 60.1106335, "lon": 29.9511598}, {"type": "node", "id": 1076686737, "lat": 60.1104612, "lon": 29.9516318}, {"type": "node", "id": 1076686753, "lat": 60.1106805, "lon": 29.9515152}, {"type": "node", "id": 1129332171, "lat": 60.1035366, "lon": 29.9760377, "tags": {"amenity": "restaurant", "brand": "\u0415\u0432\u0440\u0430\u0437\u0438\u044f", "brand:wikidata": "Q66087936", "contact:email": "ads@evrasia.spb.ru", "contact:phone": "+7 911 8391915", "contact:website": "https://evrasia.spb.ru/", "cuisine": "international", "indoor_seating": "yes", "name": "\u0415\u0432\u0440\u0430\u0437\u0438\u044f", "opening_hours": "Fr-Sa 11:00-02:00;Mo,Tu,We,Th,Su 11:00-23:00", "operator": "\u0415\u0432\u0440\u0430\u0437\u0438\u044f-\u0421\u0435\u0441\u0442\u0440\u043e\u0440\u0435\u0446\u043a", "outdoor_seating": "no", "smoking": "separated"}}, {"type": "node", "id": 1151289280, "lat": 60.1811899, "lon": 29.7669103, "tags": {"amenity": "restaurant", "name": "\u041c\u0430\u043a\u0440\u0435\u043b\u044c"}}, {"type": "node", "id": 1301932624, "lat": 60.1249719, "lon": 29.9845564}, {"type": "node", "id": 1301932635, "lat": 60.125019, "lon": 29.9847188}, {"type": "node", "id": 1301932636, "lat": 60.1249081, "lon": 29.9843093}, {"type": "node", "id": 1301932645, "lat": 60.1248403, "lon": 29.9840753}, {"type": "node", "id": 1301932657, "lat": 60.1251427, "lon": 29.984342}, {"type": "node", "id": 1301932717, "lat": 60.125073, "lon": 29.9841019}, {"type": "node", "id": 1301932737, "lat": 60.1250721, "lon": 29.9844245}, {"type": "node", "id": 1301932755, "lat": 60.1249437, "lon": 29.9839544}, {"type": "node", "id": 1301932757, "lat": 60.1250084, "lon": 29.9841774}, {"type": "node", "id": 1301932773, "lat": 60.1251225, "lon": 29.9845979}, {"type": "node", "id": 1301932798, "lat": 60.1248312, "lon": 29.9843992}, {"type": "node", "id": 1301932815, "lat": 60.1249009, "lon": 29.9846394}, {"type": "node", "id": 1365358602, "lat": 60.1634867, "lon": 29.8607276, "tags": {"addr:city": "\u0420\u0435\u043f\u0438\u043d\u043e", "addr:housenumber": "422\u0411", "addr:street": "\u041f\u0440\u0438\u043c\u043e\u0440\u0441\u043a\u043e\u0435 \u0448\u043e\u0441\u0441\u0435", "amenity": "restaurant", "check_date": "2023-08-26", "contact:instagram": "https://www.instagram.com/restaurant_zalive_/", "cuisine": "regional", "email": "zalive@mail.ru", "name": "ZaLive", "name:ru": "\u0417\u0430\u043b\u0438\u0432", "opening_hours": "Mo-Th 12:00-22:00, Fr-Su 12:00-23:00", "phone": "+7 812 9034884", "website": "https://zalive.su"}}, {"type": "node", "id": 1396466923, "lat": 60.1877476, "lon": 29.7017238}, {"type": "node", "id": 1396466924, "lat": 60.1877018, "lon": 29.7024216}, {"type": "node", "id": 1396466925, "lat": 60.187893, "lon": 29.7024263}, {"type": "node", "id": 1396466926, "lat": 60.1878927, "lon": 29.7017433}, {"type": "node", "id": 1403011589, "lat": 60.1712803, "lon": 29.8714034, "tags": {"amenity": "restaurant", "contact:instagram": "https://www.instagram.com/shalyapin_spb/", "contact:phone": "+7 812 9268696", "contact:website": "https://dachniy.shalyapinspb.ru/", "cuisine": "russian", "level": "2", "name": "\u0428\u0430\u043b\u044f\u043f\u0438\u043d", "opening_hours": "Mo-Su 11:00-23:00", "wheelchair": "no"}}, {"type": "node", "id": 1446064522, "lat": 60.1033422, "lon": 29.9746362, "tags": {"amenity": "pub", "brewery": "yes", "description:en": "draft beer & snacks", "drink:beer": "draft"}}, {"type": "node", "id": 1449629903, "lat": 60.0036093, "lon": 29.7530051}, {"type": "node", "id": 1449629906, "lat": 60.0036553, "lon": 29.752829}, {"type": "node", "id": 1449629915, "lat": 60.0037149, "lon": 29.7531154}, {"type": "node", "id": 1449629916, "lat": 60.0037609, "lon": 29.7529393}, {"type": "node", "id": 1453958301, "lat": 59.9926005, "lon": 29.7829357, "tags": {"addr:city": "\u041a\u0440\u043e\u043d\u0448\u0442\u0430\u0434\u0442", "addr:housenumber": "13", "addr:street": "\u0421\u043e\u0432\u0435\u0442\u0441\u043a\u0430\u044f \u0443\u043b\u0438\u0446\u0430", "amenity": "restaurant", "brand": "[14'/\u0423\u0417\u041b\u041e\u0412]", "capacity": "50", "cuisine": "european", "email": "14uzlov@mail.ru", "image": "https://avatars.mds.yandex.net/get-altay/7383884/2a0000018393ff5b2a647984616cf569277e/XL", "internet_access": "wlan", "name": "14'\u0423\u0417\u041b\u041e\u0412", "opening_hours": "Mo-Su 11:00-22:00", "phone": "+7 (812) 311-20-26", "start_date": "2022-10-01", "website": "14-\u0443\u0437\u043b\u043e\u0432.\u0440\u0444", "wheelchair": "yes"}}, {"type": "node", "id": 1454346895, "lat": 60.0100126, "lon": 29.718188, "tags": {"amenity": "restaurant", "cuisine": "japanese", "survey:date": "2020-05-26"}}, {"type": "node", "id": 1455186205, "lat": 59.9983786, "lon": 29.7688299, "tags": {"amenity": "cafe", "name": "\u041f\u0430\u0440\u0443\u0441", "name:ru": "\u041f\u0430\u0440\u0443\u0441", "opening_hours": "Mo-Su 10:00-00:00"}}, {"type": "node", "id": 1458502110, "lat": 59.9945124, "lon": 29.7645169, "tags": {"amenity": "cafe", "cuisine": "russian", "name": "\u041f\u0435\u043b\u044c\u043c\u0435\u043d\u043d\u0430\u044f", "opening_hours": "Mo-Su 08:00-21:00", "payment:cash": "only", "toilets": "yes", "wheelchair": "limited"}}, {"type": "node", "id": 1492328295, "lat": 60.0712578, "lon": 29.9695368}, {"type": "node", "id": 1492328296, "lat": 60.0712626, "lon": 29.9696961}, {"type": "node", "id": 1492328302, "lat": 60.0713637, "lon": 29.969523}, {"type": "node", "id": 1492328303, "lat": 60.0713686, "lon": 29.969683}, {"type": "node", "id": 1534936821, "lat": 60.2377578, "lon": 29.6955465}, {"type": "node", "id": 1534936829, "lat": 60.2377933, "lon": 29.6957996}, {"type": "node", "id": 1534936830, "lat": 60.2378545, "lon": 29.6954916}, {"type": "node", "id": 1534936831, "lat": 60.23789, "lon": 29.6957446}, {"type": "node", "id": 1652527512, "lat": 60.1482934, "lon": 29.9382614, "tags": {"amenity": "restaurant", "cuisine": "italian"}}, {"type": "node", "id": 1652527706, "lat": 60.1516615, "lon": 29.9416572, "tags": {"amenity": "cafe", "name": "\u0417\u0430\u0432\u0442\u0440\u0430\u043a \u0442\u0443\u0440\u0438\u0441\u0442\u0430"}}, {"type": "node", "id": 1691662823, "lat": 60.1982315, "lon": 29.8577865}, {"type": "node", "id": 1691662834, "lat": 60.1982826, "lon": 29.8574884}, {"type": "node", "id": 1691662837, "lat": 60.1983836, "lon": 29.8578815}, {"type": "node", "id": 1691662838, "lat": 60.1983875, "lon": 29.8578367}, {"type": "node", "id": 1691662842, "lat": 60.1985016, "lon": 29.8578841}, {"type": "node", "id": 1691662850, "lat": 60.1985344, "lon": 29.8576493}, {"type": "node", "id": 1728464052, "lat": 60.1572221, "lon": 29.8932914}, {"type": "node", "id": 1728464069, "lat": 60.1572721, "lon": 29.8932947}, {"type": "node", "id": 1728464072, "lat": 60.1572912, "lon": 29.8935136}, {"type": "node", "id": 1728464074, "lat": 60.1572999, "lon": 29.8933839}, {"type": "node", "id": 1728464078, "lat": 60.1573205, "lon": 29.8933579}, {"type": "node", "id": 1728464082, "lat": 60.1573282, "lon": 29.8932243}, {"type": "node", "id": 1728464085, "lat": 60.1573471, "lon": 29.8934434}, {"type": "node", "id": 1728464089, "lat": 60.1573984, "lon": 29.89307}, {"type": "node", "id": 1728464092, "lat": 60.1574541, "lon": 29.8936291}, {"type": "node", "id": 1728464096, "lat": 60.1574588, "lon": 29.8933892}, {"type": "node", "id": 1728464100, "lat": 60.1574868, "lon": 29.893354}, {"type": "node", "id": 1728464104, "lat": 60.1575111, "lon": 29.8935575}, {"type": "node", "id": 1735139596, "lat": 60.1910264, "lon": 29.648291}, {"type": "node", "id": 1735139597, "lat": 60.1910384, "lon": 29.6484538}, {"type": "node", "id": 1735139598, "lat": 60.1910804, "lon": 29.6481523}, {"type": "node", "id": 1735139599, "lat": 60.1910983, "lon": 29.6485745}, {"type": "node", "id": 1735139600, "lat": 60.1911114, "lon": 29.6484782}, {"type": "node", "id": 1735139601, "lat": 60.1911308, "lon": 29.6484994}, {"type": "node", "id": 1735139602, "lat": 60.191137, "lon": 29.6482894}, {"type": "node", "id": 1735139603, "lat": 60.1911613, "lon": 29.6481101}, {"type": "node", "id": 1735139604, "lat": 60.191175, "lon": 29.6483383}, {"type": "node", "id": 1756956283, "lat": 60.0580841, "lon": 29.9747451}, {"type": "node", "id": 1756956284, "lat": 60.0581212, "lon": 29.9750388}, {"type": "node", "id": 1756956293, "lat": 60.0583167, "lon": 29.9746272}, {"type": "node", "id": 1756956296, "lat": 60.0583538, "lon": 29.9749209}, {"type": "node", "id": 1766086803, "lat": 60.1945127, "lon": 29.7060192, "tags": {"amenity": "cafe", "cuisine": "coffee_shop", "name": "\u0428\u043e\u043a\u043e\u043b\u0430\u0434", "opening_hours": "Mo-Su 11:00-20:00", "wheelchair": "no"}}, {"type": "node", "id": 1809294132, "lat": 60.1704415, "lon": 29.8130837}, {"type": "node", "id": 1809294134, "lat": 60.1708324, "lon": 29.8129408}, {"type": "node", "id": 1809294176, "lat": 60.1706327, "lon": 29.8127031}, {"type": "node", "id": 1809294190, "lat": 60.1707298, "lon": 29.8132888}, {"type": "node", "id": 1992091539, "lat": 60.1857376, "lon": 29.8070596, "tags": {"amenity": "cafe"}}, {"type": "node", "id": 2047710861, "lat": 59.9944226, "lon": 29.7068724}, {"type": "node", "id": 2047710887, "lat": 59.9943399, "lon": 29.7063884}, {"type": "node", "id": 2047710921, "lat": 59.9943025, "lon": 29.7068319}, {"type": "node", "id": 2047710924, "lat": 59.99446, "lon": 29.7064289}, {"type": "node", "id": 2083905108, "lat": 60.1979143, "lon": 29.7059637, "tags": {"amenity": "cafe", "contact:vk": "mesto_terijoki", "indoor_seating": "yes", "name": "\u041c\u0435\u0441\u0442\u043e \u0432\u0441\u0442\u0440\u0435\u0447\u0438", "opening_hours": "Mo-Fr 08:00-21:00; Sa,Su 09:00-21:00", "outdoor_seating": "no", "takeaway": "yes"}}, {"type": "node", "id": 2091877888, "lat": 60.0935639, "lon": 29.956814, "tags": {"amenity": "fast_food", "name": "\u0411\u0438\u0441\u0442\u0440\u043e"}}, {"type": "node", "id": 2091877894, "lat": 60.0933311, "lon": 29.9580245, "tags": {"amenity": "cafe", "check_date:opening_hours": "2023-06-19", "name": "\u0426\u0430\u0440\u044c \u043f\u044b\u0448\u043a\u0430", "opening_hours": "Mo-Fr 08:30-20:30; Sa,Su 09:00-20:00"}}, {"type": "node", "id": 2101651747, "lat": 60.1586221, "lon": 29.891178}, {"type": "node", "id": 2101651753, "lat": 60.1586915, "lon": 29.8906711}, {"type": "node", "id": 2101651760, "lat": 60.1587662, "lon": 29.8912577}, {"type": "node", "id": 2101651762, "lat": 60.1588356, "lon": 29.8907509}, {"type": "node", "id": 2101737479, "lat": 60.1639176, "lon": 29.8605419}, {"type": "node", "id": 2101737483, "lat": 60.163967, "lon": 29.8611363}, {"type": "node", "id": 2101737488, "lat": 60.1639241, "lon": 29.8620052}, {"type": "node", "id": 2101737490, "lat": 60.1639557, "lon": 29.861707}, {"type": "node", "id": 2101737492, "lat": 60.1640185, "lon": 29.8620455}, {"type": "node", "id": 2101737493, "lat": 60.16405, "lon": 29.8617474}, {"type": "node", "id": 2101737494, "lat": 60.1641714, "lon": 29.8604567}, {"type": "node", "id": 2101737497, "lat": 60.1642208, "lon": 29.8610512}, {"type": "node", "id": 2102258628, "lat": 60.0913313, "lon": 29.9652263, "tags": {"amenity": "restaurant", "cuisine": "sushi", "name": "\u0412\u0430\u0441\u0430\u0431\u0438"}}, {"type": "node", "id": 2146322009, "lat": 59.9979799, "lon": 29.7695219, "tags": {"addr:housenumber": "27", "addr:street": "\u0424\u043b\u043e\u0442\u0441\u043a\u0430\u044f \u0443\u043b\u0438\u0446\u0430", "amenity": "fast_food", "cuisine": "kebab;pizza;burger", "name": "\u0401-\u041c\u043e\u0451"}}, {"type": "node", "id": 2146341253, "lat": 59.9986227, "lon": 29.7681649, "tags": {"amenity": "fast_food", "cuisine": "donut", "name": "\u041f\u044b\u0448\u043a\u0438"}}, {"type": "node", "id": 2312744994, "lat": 60.1110532, "lon": 29.9467256}, {"type": "node", "id": 2312744996, "lat": 60.110924, "lon": 29.946739}, {"type": "node", "id": 2312744999, "lat": 60.1110579, "lon": 29.9469051}, {"type": "node", "id": 2312745000, "lat": 60.1109286, "lon": 29.9469184}, {"type": "node", "id": 2402239819, "lat": 60.193522, "lon": 29.5191727, "tags": {"amenity": "cafe", "opening_hours": "Mo 09:00-20:00; Tu-Su 09:00-23:00", "operator": "\u041e\u041e\u041e \"\u041b\u0430\u0434\u0430\""}}, {"type": "node", "id": 2417069308, "lat": 60.0822983, "lon": 29.9572511}, {"type": "node", "id": 2417069309, "lat": 60.0823823, "lon": 29.9576362}, {"type": "node", "id": 2417069310, "lat": 60.0825667, "lon": 29.9570157}, {"type": "node", "id": 2417069311, "lat": 60.0826507, "lon": 29.9574008}, {"type": "node", "id": 2441660506, "lat": 60.0930195, "lon": 29.9571188}, {"type": "node", "id": 2441660509, "lat": 60.0930457, "lon": 29.9572182}, {"type": "node", "id": 2441660513, "lat": 60.093129, "lon": 29.9570029}, {"type": "node", "id": 2441660515, "lat": 60.0931552, "lon": 29.9571023}, {"type": "node", "id": 2441660520, "lat": 60.0908613, "lon": 29.9435934, "tags": {"amenity": "cafe", "name": "\u041c\u043e\u0437\u0430\u0439\u043a\u0430"}}, {"type": "node", "id": 2604647274, "lat": 59.9942299, "lon": 29.7788896, "tags": {"amenity": "restaurant", "name": "\u0411\u043e\u043b\u044c\u0448\u0430\u044f \u0447\u0435\u0440\u0435\u043f\u0430\u0445\u0430", "opening_hours": "Mo-Su 11:00-23:00"}}, {"type": "node", "id": 2894001001, "lat": 60.2065101, "lon": 29.7014853, "tags": {"amenity": "fast_food", "fast_food": "cafeteria", "name": "\u0421\u0442\u043e\u043b\u043e\u0432\u0430\u044f"}}, {"type": "node", "id": 2894390838, "lat": 59.9972703, "lon": 29.7670508, "tags": {"addr:city": "\u041a\u0440\u043e\u043d\u0448\u0442\u0430\u0434\u0442", "addr:housenumber": "16", "addr:postcode": "197760", "addr:street": "\u043f\u0440\u043e\u0441\u043f\u0435\u043a\u0442 \u041b\u0435\u043d\u0438\u043d\u0430", "amenity": "cafe", "contact:facebook": "https://www.facebook.com/Dk144", "diet:vegetarian": "yes", "internet_access": "yes", "name": "\u0414\u0443\u0448\u0435\u0432\u043d\u0430\u044f \u043a\u043e\u043c\u043f\u0430\u043d\u0438\u044f", "opening_hours": "Mo-Fr 10:00-20:00; Sa-Su 11:00-19:00", "phone": "+7 921 9235758", "smoking": "no", "wheelchair": "no"}}, {"type": "node", "id": 2903432934, "lat": 60.2057488, "lon": 29.7014379, "tags": {"amenity": "cafe"}}, {"type": "node", "id": 2976139659, "lat": 59.9902769, "lon": 29.788248, "tags": {"amenity": "bar", "name": "Motor"}}, {"type": "node", "id": 3634959476, "lat": 60.0879103, "lon": 29.96723}, {"type": "node", "id": 3634959478, "lat": 60.087966, "lon": 29.967443}, {"type": "node", "id": 3634959480, "lat": 60.0879955, "lon": 29.9671405}, {"type": "node", "id": 3634959483, "lat": 60.0880512, "lon": 29.9673535}, {"type": "node", "id": 3885415557, "lat": 59.9965199, "lon": 29.7662789, "tags": {"amenity": "fast_food", "brand": "Subway", "brand:wikidata": "Q244457", "brand:wikipedia": "en:Subway (restaurant)", "cuisine": "sandwich", "name": "Subway", "opening_hours": "24/7", "operator": "Subway", "phone": "+7 981 3846550", "takeaway": "yes", "website": "https://subway.ru/"}}, {"type": "node", "id": 3885415558, "lat": 59.9979145, "lon": 29.7666643, "tags": {"amenity": "fast_food", "brand": "\u0421\u0443\u0448\u0438 Wok", "brand:en": "Sushi Wok", "brand:ru": "\u0421\u0443\u0448\u0438 Wok", "brand:wikidata": "Q25444754", "cuisine": "asian", "name": "\u0421\u0443\u0448\u0438 Wok", "name:en": "Sushi Wok", "name:ru": "\u0421\u0443\u0448\u0438 Wok", "opening_hours": "10:00-23:00", "phone": "+7 812 5707070", "takeaway": "yes", "website": "https://sushiwok.ru/"}}, {"type": "node", "id": 3885415564, "lat": 59.9973795, "lon": 29.7670304, "tags": {"amenity": "ice_cream", "brand": "33 \u043f\u0438\u043d\u0433\u0432\u0438\u043d\u0430", "brand:wikidata": "Q110147993", "cuisine": "ice_cream", "name": "33 \u043f\u0438\u043d\u0433\u0432\u0438\u043d\u0430", "opening_hours": "Mo-Fr 10:00-20:00; Sa-Su 1:00-19:00", "phone": "+7 800 1005033", "website": "https://www.33pingvina.ru/"}}, {"type": "node", "id": 4073697993, "lat": 59.9925315, "lon": 29.7620736, "tags": {"addr:housenumber": "45", "addr:street": "\u043f\u0440\u043e\u0441\u043f\u0435\u043a\u0442 \u041b\u0435\u043d\u0438\u043d\u0430", "amenity": "restaurant", "cuisine": "chinese", "name": "\u0417\u043e\u043b\u043e\u0442\u043e\u0439 \u043b\u0435\u0432", "opening_hours": "Mo-Su 12:00-00:00"}}, {"type": "node", "id": 4210986615, "lat": 59.9980882, "lon": 29.703528, "tags": {"amenity": "cafe"}}, {"type": "node", "id": 4323669101, "lat": 60.0935541, "lon": 29.9559045, "tags": {"amenity": "cafe", "internet_access": "wlan", "name": "\u0411\u0440\u0438\u0437", "phone": "+7 812 4325550", "website": "http://www.kafe-brizspb.ru"}}, {"type": "node", "id": 4346167394, "lat": 59.9941878, "lon": 29.7775276, "tags": {"addr:housenumber": "35\u0410", "addr:street": "\u0421\u043e\u0432\u0435\u0442\u0441\u043a\u0430\u044f \u0443\u043b\u0438\u0446\u0430", "amenity": "cafe", "indoor_seating": "yes", "name": "Pizza Bonifacio", "opening_hours": "Mo-Th 12:00-01:00; Fr-Su 12:00-02:00", "outdoor_seating": "yes", "phone": "+7 812 3119357"}}, {"type": "node", "id": 4346167397, "lat": 59.9934925, "lon": 29.7783472, "tags": {"amenity": "cafe", "contact:vk": "https://vk.com/letogde_to", "name": "\u0413\u0434\u0435-\u0442\u043e \u041b\u0435\u0442\u043e", "name:ru": "\u0413\u0434\u0435-\u0442\u043e \u041b\u0435\u0442\u043e", "opening_hours": "Mo-Su 10:00-22:00"}}, {"type": "node", "id": 4346167398, "lat": 59.9936901, "lon": 29.778402, "tags": {"amenity": "cafe", "contact:vk": "https://vk.com/kroncafebriosh", "name": "\u0411\u0440\u0438\u043e\u0448", "name:en": "Briosh", "opening_hours": "Mo-Fr 08:00-22:00; Sa-Su 09:00-22:00", "phone": "+7 812 9811598"}}, {"type": "node", "id": 4346167418, "lat": 59.9976629, "lon": 29.7658273, "tags": {"amenity": "cafe", "cuisine": "pizza", "internet_access": "wlan", "name": "l`Americano", "phone": "+7 812 3111010", "website": "http://www.lamericano.ru"}}, {"type": "node", "id": 4346167419, "lat": 59.9941234, "lon": 29.7582342, "tags": {"amenity": "cafe", "indoor_seating": "yes", "name": "\u0421 \u041b\u0435\u0433\u043a\u0438\u043c \u041f\u0430\u0440\u043e\u043c", "opening_hours": "Mo-Su 10:00-21:00", "outdoor_seating": "no"}}, {"type": "node", "id": 4346181056, "lat": 60.0013971, "lon": 29.7623185, "tags": {"amenity": "cafe", "cuisine": "oriental", "indoor_seating": "yes", "name": "\u041d\u0430\u0440-\u0428\u0430\u0440\u0430\u0431", "name:ru": "\u041d\u0430\u0440-\u0428\u0430\u0440\u0430\u0431", "opening_hours": "Mo-Su 11:00-23:00", "outdoor_seating": "yes"}}, {"type": "node", "id": 4348946548, "lat": 59.9897293, "lon": 29.7706443, "tags": {"amenity": "restaurant", "indoor_seating": "yes", "name": "\u0424\u0430\u0440\u0442", "opening_hours": "Mo-Su 10:00-22:00", "outdoor_seating": "no", "smoking": "no"}}, {"type": "node", "id": 4348956322, "lat": 59.9855042, "lon": 29.7713932}, {"type": "node", "id": 4348956323, "lat": 59.9854765, "lon": 29.7715276}, {"type": "node", "id": 4348956324, "lat": 59.9853458, "lon": 29.7714198}, {"type": "node", "id": 4348956325, "lat": 59.9853735, "lon": 29.7712854}, {"type": "node", "id": 4380845928, "lat": 60.1942841, "lon": 29.6669005, "tags": {"amenity": "cafe", "name": "\u0413\u043e\u0440"}}, {"type": "node", "id": 4406960211, "lat": 59.9974097, "lon": 29.7661377, "tags": {"amenity": "cafe", "cafe": "bistrot", "opening_hours": "24/7", "owner": "\u0418\u041f \u0414\u0443\u0434\u043a\u043e"}}, {"type": "node", "id": 4418359698, "lat": 60.1660146, "lon": 29.8638263, "tags": {"amenity": "restaurant", "name": "Stroganoff", "official_name": "Stroganoff Bar&Grill", "phone": "+7 812 4320575"}}, {"type": "node", "id": 4422805590, "lat": 60.0859612, "lon": 29.9559168, "tags": {"addr:housenumber": "1", "addr:street": "\u0443\u043b\u0438\u0446\u0430 \u0422\u043e\u043a\u0430\u0440\u0435\u0432\u0430", "amenity": "fast_food", "brand": "\u0421\u0443\u0448\u0438 Wok", "brand:en": "Sushi Wok", "brand:ru": "\u0421\u0443\u0448\u0438 Wok", "brand:wikidata": "Q25444754", "brand:wikipedia": "uk:\u0421\u0443\u0448\u0438 Wok (\u043c\u0435\u0440\u0435\u0436\u0430 \u043c\u0430\u0433\u0430\u0437\u0438\u043d\u0456\u0432)", "check_date": "2023-03-13", "cuisine": "asian", "name": "\u0421\u0443\u0448\u0438 Wok", "name:en": "Sushi Wok", "name:ru": "\u0421\u0443\u0448\u0438 Wok", "opening_hours": "Mo-Su 10:00-23:00", "takeaway": "yes"}}, {"type": "node", "id": 4433719589, "lat": 60.0088888, "lon": 29.7254376, "tags": {"amenity": "cafe", "cafe": "bistrot", "name": "\u041f\u0440\u043e\u0434\u0443\u043a\u0442\u043e\u0432\u0430\u044f \u043b\u0430\u0432\u043a\u0430", "opening_hours": "Mo-Su,PH 09:00-23:00", "owner": "\u0418\u041f \u0414\u0443\u0434\u043a\u043e"}}, {"type": "node", "id": 4433909789, "lat": 59.9979328, "lon": 29.7636301, "tags": {"amenity": "cafe", "indoor_seating": "yes", "name": "\u0414\u044e\u043d\u0435\u0440", "opening_hours": "Mo-Su 10:00-24:00", "outdoor_seating": "no", "payment:credit_cards": "yes", "payment:debit_cards": "yes", "wheelchair": "limited"}}, {"type": "node", "id": 4582331894, "lat": 60.1676615, "lon": 29.8232431, "tags": {"addr:housenumber": "448", "addr:street": "\u041f\u0440\u0438\u043c\u043e\u0440\u0441\u043a\u043e\u0435 \u0448\u043e\u0441\u0441\u0435", "amenity": "restaurant", "contact:email": "ginza_project_079@rocketdata.io", "contact:instagram": "https://www.instagram.com/nashadacha_rest", "contact:phone": "+7 812 6401616", "contact:website": "https://ginza.ru/", "name": "\u041d\u0430\u0448\u0430 Dacha", "opening_hours": "Mo-Fr 12:00-23:00;Sa-Su 10:00-23:00"}}, {"type": "node", "id": 4747051903, "lat": 60.197232, "lon": 29.5672216, "tags": {"addr:housenumber": "640\u0410", "addr:place": "\u0421\u0435\u0440\u043e\u0432\u043e", "addr:street": "\u041f\u0440\u0438\u043c\u043e\u0440\u0441\u043a\u043e\u0435 \u0448\u043e\u0441\u0441\u0435", "amenity": "restaurant", "cuisine": "international", "internet_access": "wlan", "name": "\u0415\u043b\u044c", "opening_hours": "10:00-23:00", "payment:cash": "yes", "payment:mastercard": "yes", "payment:visa": "yes", "phone": "+7 812 4332312", "website": "https://www.restoranel.ru/"}}, {"type": "node", "id": 4822297404, "lat": 60.0498177, "lon": 29.9754199}, {"type": "node", "id": 4822297407, "lat": 60.0497515, "lon": 29.9752532}, {"type": "node", "id": 4822297408, "lat": 60.0497603, "lon": 29.975237}, {"type": "node", "id": 4822334810, "lat": 60.0498331, "lon": 29.9752662}, {"type": "node", "id": 4822334811, "lat": 60.0498097, "lon": 29.9754998}, {"type": "node", "id": 4822334812, "lat": 60.0496074, "lon": 29.9755292}, {"type": "node", "id": 4822334813, "lat": 60.0496711, "lon": 29.9752209}, {"type": "node", "id": 4822334814, "lat": 60.0496884, "lon": 29.9750484}, {"type": "node", "id": 4822334815, "lat": 60.0497757, "lon": 29.9750835}, {"type": "node", "id": 4933820735, "lat": 60.0144517, "lon": 30.0104641, "tags": {"amenity": "restaurant", "delivery": "yes", "email": "foxinn.rest@bk.ru", "name": "Fox Inn", "opening_hours": "Mo-Su 08:00-22:00", "phone": "+7-921-553-93-90", "website": "https://foxinnrest.ru/"}}, {"type": "node", "id": 4947239721, "lat": 59.9858048, "lon": 29.7713127, "tags": {"amenity": "fast_food", "check_date:opening_hours": "2022-05-19", "indoor_seating": "yes", "name:ru": "\u0428\u0430\u0432\u0435\u0440\u043c\u0430", "opening_hours": "Mo-Su 10:00-22:00", "outdoor_seating": "no"}}, {"type": "node", "id": 5001489022, "lat": 60.0015049, "lon": 29.7686581, "tags": {"amenity": "restaurant", "cuisine": "georgian;japanese", "internet_access": "wlan", "name": "\u0421\u0442\u0430\u0440\u0430\u044f \u041a\u0440\u0435\u043f\u043e\u0441\u0442\u044c", "name:en": "Old fortress", "opening_hours": "Mo-Fr 12:00-00:00; Sa-Su 12:00-03:00"}}, {"type": "node", "id": 5004960621, "lat": 60.1593011, "lon": 30.0581945, "tags": {"amenity": "cafe"}}, {"type": "node", "id": 5007800596, "lat": 60.1483555, "lon": 29.9333085}, {"type": "node", "id": 5007800597, "lat": 60.1481953, "lon": 29.9334131}, {"type": "node", "id": 5007800598, "lat": 60.1481392, "lon": 29.9333782}, {"type": "node", "id": 5007800599, "lat": 60.1480765, "lon": 29.9336089}, {"type": "node", "id": 5007800600, "lat": 60.1482153, "lon": 29.9337242}, {"type": "node", "id": 5007800601, "lat": 60.148238, "lon": 29.9338208}, {"type": "node", "id": 5007800602, "lat": 60.1482954, "lon": 29.9338717}, {"type": "node", "id": 5007800603, "lat": 60.1483115, "lon": 29.9337403}, {"type": "node", "id": 5007800604, "lat": 60.1483502, "lon": 29.9336974}, {"type": "node", "id": 5007800605, "lat": 60.1483755, "lon": 29.9335794}, {"type": "node", "id": 5007800606, "lat": 60.1483528, "lon": 29.9334855}, {"type": "node", "id": 5007800607, "lat": 60.1483876, "lon": 29.9334614}, {"type": "node", "id": 5013555755, "lat": 60.1534313, "lon": 29.9006466}, {"type": "node", "id": 5013555758, "lat": 60.1534259, "lon": 29.9004026}, {"type": "node", "id": 5077420533, "lat": 60.0014232, "lon": 29.7687808, "tags": {"amenity": "cafe", "name": "\u0421\u0442\u0430\u0440\u0430\u044f \u043a\u0440\u0435\u043f\u043e\u0441\u0442\u044c", "name:ru": "\u0421\u0442\u0430\u0440\u0430\u044f \u043a\u0440\u0435\u043f\u043e\u0441\u0442\u044c"}}, {"type": "node", "id": 5077497126, "lat": 59.998258, "lon": 29.7688828, "tags": {"amenity": "bar", "name": "\u0412 \u0434\u0440\u043e\u0432\u0430", "name:ru": "\u0412 \u0434\u0440\u043e\u0432\u0430"}}, {"type": "node", "id": 5302091665, "lat": 60.0791148, "lon": 30.028866, "tags": {"addr:housenumber": "1", "addr:street": "\u0434\u043e\u0440\u043e\u0433\u0430 \u043a \u0448\u0430\u043b\u0430\u0448\u0443 \u041b\u0435\u043d\u0438\u043d\u0430", "amenity": "restaurant", "name": "\u0428\u0430\u043b\u0430\u0448", "name:en": "Shalash", "opening_hours": "Mo-Su 13:00-23:00", "payment:credit_cards": "yes", "payment:debit_cards": "yes", "phone": "+7 812 4376055", "toilets": "yes", "website": "https://www.shalash.org/"}}, {"type": "node", "id": 5465249039, "lat": 60.1894695, "lon": 29.7259991, "tags": {"addr:housenumber": "516\u0410", "addr:street": "\u041f\u0440\u0438\u043c\u043e\u0440\u0441\u043a\u043e\u0435 \u0448\u043e\u0441\u0441\u0435", "amenity": "fast_food", "check_date": "2023-08-07", "cuisine": "pizza;japanese;burger", "delivery": "yes", "description": "\u041f\u0438\u0446\u0446\u0430, \u0441\u0443\u0448\u0438, \u0431\u0443\u0440\u0433\u0435\u0440\u044b, \u0448\u0430\u0432\u0435\u0440\u043c\u0430. \u0414\u043e\u0441\u0442\u0430\u0432\u043a\u0430.", "internet_access": "no", "name": "Smile", "opening_hours": "11:00-23:00", "payment:contactless": "yes", "payment:credit_cards": "yes", "payment:debit_cards": "yes", "payment:mastercard": "yes", "payment:mastercard_contactless": "yes", "payment:mir": "yes", "payment:visa": "yes", "payment:visa_contactless": "yes", "payment:visa_debit": "yes", "phone": "+7 812 6034360", "takeaway": "yes", "website": "\u0441\u0443\u0448\u0438\u0441\u043c\u0430\u0439\u043b.\u0440\u0444", "wheelchair": "no"}}, {"type": "node", "id": 5674800924, "lat": 60.0017123, "lon": 29.7682833, "tags": {"amenity": "bar", "cuisine": "ice_cream;tapas", "internet_access": "wlan", "name": "\u041a\u043b\u0443\u0431 \u041a\u0410\u0417\u0415\u041c\u0410\u0422", "name:en": "Club Casemate", "opening_hours": "Tu-Su 17:00-03:00", "phone": "+7 812 6678586"}}, {"type": "node", "id": 5841856557, "lat": 60.0976928, "lon": 29.9720798, "tags": {"amenity": "cafe", "diet:vegetarian": "no", "name": "\u041f\u0440\u0438\u043e\u0440\u0438\u0442\u0435\u0442", "payment:credit_cards": "yes", "payment:debit_cards": "yes"}}, {"type": "node", "id": 5842043674, "lat": 60.1662437, "lon": 29.8663424, "tags": {"amenity": "cafe", "cuisine": "burger", "name": "\u041c\u044f\u0441\u043e\u0440\u0443\u0431\u043a\u0430", "phone": "+7 911 9273044", "website": "https://myasorubka.spb.ru/"}}, {"type": "node", "id": 5894509143, "lat": 60.1854736, "lon": 29.8070629, "tags": {"amenity": "cafe", "name": "\u0428\u0430\u0439\u0431\u0430 \u0432 \u0438\u0433\u0440\u0435", "phone": "+78124337331", "smoking": "outside", "wheelchair": "limited"}}, {"type": "node", "id": 5916633253, "lat": 60.0930318, "lon": 29.9571656, "tags": {"entrance": "yes"}}, {"type": "node", "id": 6308141285, "lat": 60.0922117, "lon": 29.9658499, "tags": {"amenity": "cafe", "cuisine": "pizza", "name": "#Smile", "opening_hours": "Mo-Su 11:00-23:00"}}, {"type": "node", "id": 6308382987, "lat": 60.0872548, "lon": 29.9529278, "tags": {"amenity": "cafe", "name": "\u041f\u0438\u0446\u0446\u0430 \u041c\u043e\u0440\u0435", "name:en": "Pizza More"}}, {"type": "node", "id": 6344241186, "lat": 60.1813471, "lon": 29.766226, "tags": {"amenity": "restaurant", "name": "Cafe del Mar", "phone": "+7 921 9979796, +7 812 7773435", "website": "https://delmar-spb.ru/"}}, {"type": "node", "id": 6344256785, "lat": 60.1810609, "lon": 29.7682876, "tags": {"addr:housenumber": "494", "addr:street": "\u041f\u0440\u0438\u043c\u043e\u0440\u0441\u043a\u043e\u0435 \u0448\u043e\u0441\u0441\u0435", "amenity": "restaurant", "internet_access": "wlan", "name": "\u0411\u0430\u0441\u0442\u0438\u043e\u043d", "phone": "+7 812 9325733", "website": "http://restoran-bastion.ru"}}, {"type": "node", "id": 6440784785, "lat": 60.1139275, "lon": 29.950548, "tags": {"amenity": "cafe"}}, {"type": "node", "id": 6558046555, "lat": 60.1304783, "lon": 29.9394701}, {"type": "node", "id": 6558046556, "lat": 60.1304814, "lon": 29.9392403}, {"type": "node", "id": 6558046557, "lat": 60.130522, "lon": 29.9389791}, {"type": "node", "id": 6558046558, "lat": 60.1304429, "lon": 29.9389018}, {"type": "node", "id": 6558046559, "lat": 60.1303669, "lon": 29.9388663}, {"type": "node", "id": 6558046560, "lat": 60.1302473, "lon": 29.938952}, {"type": "node", "id": 6558046561, "lat": 60.1302827, "lon": 29.9394618}, {"type": "node", "id": 6657585836, "lat": 60.168853, "lon": 29.8191651}, {"type": "node", "id": 6657585837, "lat": 60.1688142, "lon": 29.8193157}, {"type": "node", "id": 6657585838, "lat": 60.168632, "lon": 29.8195325}, {"type": "node", "id": 6657585839, "lat": 60.1687532, "lon": 29.8190614}, {"type": "node", "id": 6689489544, "lat": 60.2208195, "lon": 29.8444563, "tags": {"amenity": "cafe", "name": "\u0413\u0430\u043b\u0430", "phone": "+7 965 0407079"}}, {"type": "node", "id": 6700335275, "lat": 60.1162235, "lon": 29.9617676, "tags": {"amenity": "restaurant"}}, {"type": "node", "id": 6744608485, "lat": 59.9921817, "lon": 29.7736597, "tags": {"amenity": "fast_food"}}, {"type": "node", "id": 6966593883, "lat": 60.1852218, "lon": 29.8107967}, {"type": "node", "id": 6966593884, "lat": 60.1851753, "lon": 29.8110713}, {"type": "node", "id": 6966593885, "lat": 60.1851086, "lon": 29.8110259}, {"type": "node", "id": 6966593886, "lat": 60.185155, "lon": 29.8107508}, {"type": "node", "id": 7284029264, "lat": 60.015162, "lon": 30.0096198, "tags": {"amenity": "cafe", "cuisine": "uzbek", "level": "-1", "takeaway": "yes"}}, {"type": "node", "id": 7374594965, "lat": 60.1950153, "lon": 29.6801798, "tags": {"addr:city": "\u0417\u0435\u043b\u0435\u043d\u043e\u0433\u043e\u0440\u0441\u043a", "addr:housenumber": "28", "addr:street": "\u0421\u0440\u0435\u0434\u043d\u0438\u0439 \u043f\u0440\u043e\u0441\u043f\u0435\u043a\u0442", "amenity": "bar", "name": "\u041a\u043e\u043d\u0442\u0430\u043a\u0442 \u0411\u0430\u0440", "opening_hours": "Mo-Su 13:00-06:00", "phone": "+7 812 9667719", "website": "https://kontaktbar.ru/"}}, {"type": "node", "id": 7395202085, "lat": 60.081316, "lon": 29.9582058, "tags": {"amenity": "fast_food", "indoor_seating": "yes", "name": "Drive Cafe", "opening_hours": "24/7", "outdoor_seating": "no", "payment:credit_cards": "yes", "payment:debit_cards": "yes", "wheelchair": "yes"}}, {"type": "node", "id": 7610709158, "lat": 60.0713632, "lon": 29.9694911}, {"type": "node", "id": 7610709159, "lat": 60.071358, "lon": 29.9694609}, {"type": "node", "id": 7610709160, "lat": 60.0713351, "lon": 29.9694179}, {"type": "node", "id": 7610709161, "lat": 60.0713039, "lon": 29.9694115}, {"type": "node", "id": 7610709162, "lat": 60.0712666, "lon": 29.9695017}, {"type": "node", "id": 7610709163, "lat": 60.0712676, "lon": 29.9695356}, {"type": "node", "id": 7683898926, "lat": 59.9936607, "lon": 29.7783741, "tags": {"amenity": "cafe", "cuisine": "kebab", "name": "\u0412\u043b\u0430\u0432\u0430\u0448\u0435", "opening_hours": "Mo-Su 10:00-22:00"}}, {"type": "node", "id": 7740459348, "lat": 60.1616139, "lon": 29.8528306}, {"type": "node", "id": 7740459349, "lat": 60.1616518, "lon": 29.8534472}, {"type": "node", "id": 7740459354, "lat": 60.1614468, "lon": 29.8526581}, {"type": "node", "id": 7740459355, "lat": 60.1614366, "lon": 29.8524751}, {"type": "node", "id": 7740459356, "lat": 60.1614416, "lon": 29.8523361}, {"type": "node", "id": 7740459357, "lat": 60.1614733, "lon": 29.8522582}, {"type": "node", "id": 7740459358, "lat": 60.1615148, "lon": 29.8521955}, {"type": "node", "id": 7740459359, "lat": 60.1615174, "lon": 29.8520339}, {"type": "node", "id": 7740459360, "lat": 60.1616039, "lon": 29.8520383}, {"type": "node", "id": 7740459361, "lat": 60.1616018, "lon": 29.8521977}, {"type": "node", "id": 7740459362, "lat": 60.1616396, "lon": 29.8522554}, {"type": "node", "id": 7740459363, "lat": 60.1616651, "lon": 29.8523465}, {"type": "node", "id": 7740459364, "lat": 60.1616637, "lon": 29.8524683}, {"type": "node", "id": 7740459365, "lat": 60.1616474, "lon": 29.852536}, {"type": "node", "id": 7740459368, "lat": 60.1614285, "lon": 29.8534935}, {"type": "node", "id": 7832388191, "lat": 60.054795, "lon": 30.006817, "tags": {"amenity": "cafe", "contact:email": "gannadoka@gmail.com", "contact:instagram": "https://instagram.com/galimobarhan", "contact:phone": "+7 981 1536766", "name": "\u041a\u0430\u0444\u0435 \u043f\u0435\u0440\u0441\u0438\u0434\u0441\u043a\u043e\u0439 \u043a\u0443\u0445\u043d\u0438", "opening_hours": "Mo-Su 09:00-21:00", "operator": "\u041a\u0430\u0444\u0435 \u043f\u0435\u0440\u0441\u0438\u0434\u0441\u043a\u043e\u0439 \u043a\u0443\u0445\u043d\u0438"}}, {"type": "node", "id": 7850084485, "lat": 60.1916116, "lon": 29.6541049, "tags": {"amenity": "restaurant", "internet_access": "wlan", "name": "\u041f\u0442\u0438\u0447\u043a\u0438 \u0438 \u042f\u0433\u043e\u0434\u044b", "name:en": "Birds&Berries", "opening_hours": "Mo-Su 09:00-22:00", "phone": "+7 921 9570092"}}, {"type": "node", "id": 7884874961, "lat": 60.1933607, "lon": 29.5185421}, {"type": "node", "id": 7884874962, "lat": 60.1933706, "lon": 29.5185824}, {"type": "node", "id": 7884874963, "lat": 60.1933401, "lon": 29.5186127}, {"type": "node", "id": 7884874964, "lat": 60.1933302, "lon": 29.5185724}, {"type": "node", "id": 7884886788, "lat": 60.205771, "lon": 29.7037327, "tags": {"amenity": "fast_food", "brand": "\u0414\u043e\u0434\u043e \u041f\u0438\u0446\u0446\u0430", "brand:en": "Dodo Pizza", "brand:ru": "\u0414\u043e\u0434\u043e \u041f\u0438\u0446\u0446\u0430", "brand:wikidata": "Q61949318", "brand:wikipedia": "ru:\u0414\u043e\u0434\u043e \u041f\u0438\u0446\u0446\u0430", "cuisine": "pizza", "indoor_seating": "yes", "name": "\u0414\u043e\u0434\u043e \u041f\u0438\u0446\u0446\u0430", "name:en": "Dodo Pizza", "name:ru": "\u0414\u043e\u0434\u043e \u041f\u0438\u0446\u0446\u0430", "outdoor_seating": "no", "takeaway": "yes"}}, {"type": "node", "id": 7884890139, "lat": 60.1910978, "lon": 29.6481432}, {"type": "node", "id": 8175107068, "lat": 60.0086074, "lon": 29.7370027, "tags": {"amenity": "fast_food", "check_date": "2022-11-12", "name": "Drive Cafe", "opening_hours": "24/7", "operator": "\u0413\u0430\u0437\u043f\u0440\u043e\u043c\u043d\u0435\u0444\u0442\u044c", "payment:credit_cards": "yes", "payment:debit_cards": "yes"}}, {"type": "node", "id": 8370809485, "lat": 60.150651, "lon": 29.927225, "tags": {"amenity": "restaurant", "contact:email": "info@sunbor.ru", "contact:facebook": "https://facebook.com/BORCLUB812", "contact:instagram": "https://instagram.com/b.o.r.812", "contact:phone": "+7 921 6812812", "contact:website": "https://www.borclub.ru/", "name": "\u0411\u043e\u0440 812", "opening_hours": "Mo-Su 12:00-23:00", "operator": "\u0421\u043e\u043b\u043d\u0435\u0447\u043d\u043e\u0435"}}, {"type": "node", "id": 8752577469, "lat": 59.9860791, "lon": 29.7838148, "tags": {"amenity": "fast_food", "brand": "\u0415\u0432\u0440\u043e \u041a\u0435\u0431\u0430\u0431", "brand:en": "\u0415uro \u041a\u0435b\u0430b", "brand:ru": "\u0415\u0432\u0440\u043e \u041a\u0435\u0431\u0430\u0431", "brand:wikidata": "Q109943635", "contact:email": "info@shaverland.ru", "contact:phone": "+7 906 2509527;+7 964 3369000", "contact:website": "https://shaverland.ru/", "cuisine": "kebab", "fast_food": "shawarma", "name": "\u0428\u0430\u0432\u0435\u0440\u043b\u044d\u043d\u0434", "name:en": "Shaverland", "name:ru": "\u0428\u0430\u0432\u0435\u0440\u043b\u044d\u043d\u0434", "opening_hours": "Mo-Su 05:00-04:00", "takeaway": "yes"}}, {"type": "node", "id": 8815224220, "lat": 60.0713544, "lon": 29.9695476, "tags": {"amenity": "fast_food", "cuisine": "burger", "name": "\u041a\u0438\u043d\u0433\u0410\u0432\u0442\u043e", "opening_hours": "24/7"}}, {"type": "node", "id": 8815224221, "lat": 60.071269, "lon": 29.9694718}, {"type": "node", "id": 8815224222, "lat": 60.0712771, "lon": 29.9694443}, {"type": "node", "id": 8815224223, "lat": 60.0712891, "lon": 29.9694235}, {"type": "node", "id": 8815224224, "lat": 60.0713197, "lon": 29.9694095}, {"type": "node", "id": 8815224225, "lat": 60.0713483, "lon": 29.9694356}, {"type": "node", "id": 8839210833, "lat": 60.0917516, "lon": 29.9548057, "tags": {"amenity": "cafe", "contact:email": "vudi.barbercoffee@gmail.com", "contact:phone": "+7 921 4315525", "name": "Vudi", "opening_hours": "Mo-Su 09:00-21:00"}}, {"type": "node", "id": 8839210864, "lat": 60.1516399, "lon": 29.9417272, "tags": {"amenity": "bar", "contact:phone": "+7 812 9797000", "name": "\u0417\u0430\u0432\u0442\u0440\u0430\u043a \u0442\u0443\u0440\u0438\u0441\u0442\u0430", "opening_hours": "Mo-Su 10:00-00:00"}}, {"type": "node", "id": 8852639700, "lat": 60.0321548, "lon": 29.6384659, "tags": {"amenity": "cafe", "name": "\u0424\u043e\u0440\u0442 \u0420\u0438\u0444"}}, {"type": "node", "id": 8867570217, "lat": 59.9940423, "lon": 29.762776, "tags": {"amenity": "pub", "cuisine": "american", "internet_access": "wlan", "name": "\u0422\u0435\u0445\u043d\u0438\u0447\u0435\u0441\u043a\u0438\u0439 \u043f\u0435\u0440\u0435\u0440\u044b\u0432", "opening_hours": "Su-Th 13:00-23:00; Fr-Sa 13:00-01:00", "phone": "+7 (921) 902-30-40"}}, {"type": "node", "id": 8914782687, "lat": 60.134878, "lon": 29.9416977, "tags": {"addr:city": "\u0421\u043e\u043b\u043d\u0435\u0447\u043d\u043e\u0435", "addr:housenumber": "7", "addr:street": "41-\u0439 \u043a\u0438\u043b\u043e\u043c\u0435\u0442\u0440 \u041f\u0440\u0438\u043c\u043e\u0440\u0441\u043a\u043e\u0433\u043e \u0448\u043e\u0441\u0441\u0435", "amenity": "restaurant", "contact:website": "https://oldmillspb.ru/restaurants/grot", "cuisine": "georgian", "name": "\u0413\u0440\u043e\u0442", "opening_hours": "Su-Th 13:00-23:00; Fr, Sa 12:00-01:00", "phone": "+7 812 4329148"}}, {"type": "node", "id": 8914782688, "lat": 60.1348847, "lon": 29.9420679, "tags": {"addr:city": "\u0421\u043e\u043b\u043d\u0435\u0447\u043d\u043e\u0435", "addr:housenumber": "7", "addr:street": "41-\u0439 \u043a\u0438\u043b\u043e\u043c\u0435\u0442\u0440 \u041f\u0440\u0438\u043c\u043e\u0440\u0441\u043a\u043e\u0433\u043e \u0448\u043e\u0441\u0441\u0435", "amenity": "restaurant", "cuisine": "russian", "name": "\u041a\u043e\u0440\u0447\u043c\u0430", "opening_hours": "Th-Su 11:00-22:00", "phone": "+7 812 4329148", "website": "https://oldmillspb.ru/restaurants/korchma"}}, {"type": "node", "id": 8914782833, "lat": 60.1287803, "lon": 29.9401742, "tags": {"amenity": "cafe", "cuisine": "coffee_shop", "diet:vegan": "yes", "diet:vegetarian": "only", "name": "\u0421\u0432\u0435\u0442\u043b\u043e\u0435 \u043a\u0430\u0444\u0435", "opening_hours": "Mo-Su 09:00-22:00", "wheelchair": "yes"}}, {"type": "node", "id": 8914782887, "lat": 60.1302653, "lon": 29.9392114, "tags": {"entrance": "yes"}}, {"type": "node", "id": 8949273763, "lat": 60.1686687, "lon": 29.8195706}, {"type": "node", "id": 8949273764, "lat": 60.1687318, "lon": 29.8196362}, {"type": "node", "id": 8958314036, "lat": 60.1534979, "lon": 29.9006436}, {"type": "node", "id": 8958314287, "lat": 60.1503276, "lon": 29.9230832, "tags": {"amenity": "fast_food", "building": "kiosk"}}, {"type": "node", "id": 8960216554, "lat": 60.1705961, "lon": 29.8132677, "tags": {"entrance": "yes"}}, {"type": "node", "id": 8960216555, "lat": 60.1706262, "lon": 29.8131654}, {"type": "node", "id": 8960216556, "lat": 60.17052, "lon": 29.8128173}, {"type": "node", "id": 8960216557, "lat": 60.1705785, "lon": 29.812887}, {"type": "node", "id": 8960216562, "lat": 60.1706561, "lon": 29.8127309}, {"type": "node", "id": 8960216638, "lat": 60.1680624, "lon": 29.8221731, "tags": {"amenity": "restaurant", "contact:instagram": "https://www.instagram.com/villaverde.rest/", "contact:phone": "+7 812 2451000", "contact:website": "https://vv-repino.ru/", "name": "Villa Verde", "opening_hours": "Mo-Th,Su 12:00-24:00; Fr-Sa 12:00-01:30"}}, {"type": "node", "id": 8960216644, "lat": 60.1669029, "lon": 29.8281062, "tags": {"amenity": "restaurant", "contact:phone": "+7 994 4384824", "contact:website": "https://piazza.la/", "cuisine": "italian", "name": "La Piazza"}}, {"type": "node", "id": 8960216651, "lat": 60.1668495, "lon": 29.8284146, "tags": {"amenity": "fast_food", "name": "NaMore", "opening_hours": "Mo-Su 11:00-23:00"}}, {"type": "node", "id": 8960875404, "lat": 60.1926994, "lon": 29.6909173, "tags": {"amenity": "fast_food", "name": "559"}}, {"type": "node", "id": 9010400425, "lat": 60.1977983, "lon": 29.7049939, "tags": {"addr:housenumber": "24", "addr:street": "\u043f\u0440\u043e\u0441\u043f\u0435\u043a\u0442 \u041b\u0435\u043d\u0438\u043d\u0430", "amenity": "fast_food", "check_date": "2023-08-07", "cuisine": "chicken", "internet_access": "no", "name": "\u0412\u043a\u0443\u0441 \u0412\u043e\u0441\u0442\u043e\u043a\u0430", "opening_hours": "07:00-24:00", "payment:contactless": "yes", "payment:mastercard": "yes", "payment:visa": "yes", "wheelchair": "limited"}}, {"type": "node", "id": 9049946558, "lat": 59.9943374, "lon": 29.707227, "tags": {"amenity": "restaurant"}}, {"type": "node", "id": 9052783058, "lat": 59.9981479, "lon": 29.7658119, "tags": {"amenity": "cafe", "cafe": "time_cafe", "name": "\u0425\u043e\u0440\u043e\u0448\u0435\u0435 \u041c\u0435\u0441\u0442\u043e", "opening_hours": "Mo-Su 14:00-23:00", "payment:credit_cards": "yes", "payment:debit_cards": "yes", "wheelchair": "no"}}, {"type": "node", "id": 9052783067, "lat": 59.9964888, "lon": 29.7663134, "tags": {"amenity": "fast_food", "brand": "\u0414\u043e\u0434\u043e \u041f\u0438\u0446\u0446\u0430", "brand:en": "Dodo Pizza", "brand:ru": "\u0414\u043e\u0434\u043e \u041f\u0438\u0446\u0446\u0430", "brand:wikidata": "Q61949318", "brand:wikipedia": "ru:\u0414\u043e\u0434\u043e \u041f\u0438\u0446\u0446\u0430", "check_date": "2023-07-03", "contact:email": "feedback@dodopizza.com", "contact:facebook": "https://www.facebook.com/dodopizza/", "contact:instagram": "https://www.instagram.com/dodopizza", "contact:phone": "+7 800 3020060", "contact:vk": "https://vk.com/dodo", "contact:website": "https://dodopizza.ru", "cuisine": "pizza", "delivery": "yes", "diet:vegetarian": "yes", "indoor_seating": "yes", "name": "\u0414\u043e\u0434\u043e \u041f\u0438\u0446\u0446\u0430", "name:en": "Dodo Pizza", "name:ru": "\u0414\u043e\u0434\u043e \u041f\u0438\u0446\u0446\u0430", "opening_hours": "Mo-Th 10:00-22:00; Fr,Sa 10:00-23:00; Su 10:00-22:00", "outdoor_seating": "no", "takeaway": "yes"}}, {"type": "node", "id": 9122753218, "lat": 59.9873412, "lon": 29.7624138, "tags": {"amenity": "fast_food", "indoor_seating": "yes", "name": "\u041b\u044e\u0431\u0438\u043c\u0430\u044f \u043f\u044b\u0448\u043a\u0430", "opening_hours": "Mo-Su 10:00-22:00", "outdoor_seating": "yes"}}, {"type": "node", "id": 9355840580, "lat": 59.9977404, "lon": 29.765799, "tags": {"addr:city": "\u041a\u0440\u043e\u043d\u0448\u0442\u0430\u0434\u0442", "addr:housenumber": "13", "addr:postcode": "197760", "addr:street": "\u043f\u0440\u043e\u0441\u043f\u0435\u043a\u0442 \u041b\u0435\u043d\u0438\u043d\u0430", "amenity": "fast_food", "name": "V\u043b\u0430v\u0430\u0448\u0435", "opening_hours": "24/7", "phone": "+7 (812) 317 47 77", "website": "https://vlavashe.ru"}}, {"type": "node", "id": 9672364980, "lat": 60.1879152, "lon": 29.7023951}, {"type": "node", "id": 9672364981, "lat": 60.1878932, "lon": 29.7018023}, {"type": "node", "id": 9672364982, "lat": 60.1879532, "lon": 29.7017983}, {"type": "node", "id": 9725613664, "lat": 60.144762, "lon": 30.0078074, "tags": {"amenity": "fast_food", "cuisine": "kebab"}}, {"type": "node", "id": 9797026617, "lat": 59.9859558, "lon": 29.7966267, "tags": {"amenity": "fast_food", "contact:email": "info@shaverland.ru", "contact:phone": "+7 906 2509527;+7 964 3369000", "contact:website": "https://shaverland.ru/", "name": "\u0428\u0430\u0432\u0435\u0440\u043b\u044d\u043d\u0434", "opening_hours": "Mo-Su 05:00-04:00"}}, {"type": "node", "id": 9805505653, "lat": 60.1733271, "lon": 29.8073095, "tags": {"amenity": "fast_food", "email": "vlavashe@vlavashe.ru", "name": "\u0412\u043b\u0430\u0432\u0430\u0448\u0435", "opening_hours": "24/7", "phone": "+7 (812) 317 47 77", "website": "https://vlavashe.ru/"}}, {"type": "node", "id": 9808854817, "lat": 60.1809968, "lon": 29.7688306, "tags": {"amenity": "restaurant", "name": "NaMore"}}, {"type": "node", "id": 9812258821, "lat": 60.197603, "lon": 29.7050081, "tags": {"amenity": "cafe", "check_date": "2023-08-07", "internet_access": "no", "name": "\u041c\u0435\u0442\u0440\u043e\u043f\u043e\u043b\u044c", "opening_hours": "09:00-21:00", "payment:contactless": "yes", "payment:mastercard": "yes", "payment:visa": "yes", "wheelchair": "no"}}, {"type": "node", "id": 9820144536, "lat": 59.9928927, "lon": 29.7631457, "tags": {"amenity": "fast_food", "check_date": "2022-11-12", "contact:email": "info@shaverland.ru", "contact:phone": "+7 906 2509527;+7 964 3369000", "contact:website": "https://shaverland.ru/", "cuisine": "kebab", "fast_food": "shawarma", "name": "\u0428\u0430\u0432\u0435\u0440\u043b\u044d\u043d\u0434", "name:en": "Shaverland", "name:ru": "\u0428\u0430\u0432\u0435\u0440\u043b\u044d\u043d\u0434", "opening_hours": "Mo-Su 05:00-04:00", "payment:credit_cards": "yes", "payment:debit_cards": "yes", "wheelchair": "no"}}, {"type": "node", "id": 9831667698, "lat": 60.1982294, "lon": 29.7059034, "tags": {"amenity": "cafe", "brand": "\u0426\u0435\u044585", "brand:wikidata": "Q109682756", "check_date": "2023-08-07", "cuisine": "coffee_shop;pie", "internet_access": "no", "name": "\u0426\u0435\u044585", "opening_hours": "Mo-Sa 08:00-21:00; Su 09:00-21:00", "payment:cash": "yes", "payment:contactless": "yes", "payment:maestro": "yes", "payment:mastercard": "yes", "payment:visa": "yes", "payment:visa_electron": "yes", "takeaway": "yes", "wheelchair": "no"}}, {"type": "node", "id": 9831737989, "lat": 60.1985393, "lon": 29.7070205, "tags": {"amenity": "cafe", "cuisine": "kebab", "delivery": "yes", "outdoor_seating": "yes", "payment:cash": "only", "takeaway": "yes", "wheelchair": "yes"}}, {"type": "node", "id": 9831737991, "lat": 60.1979655, "lon": 29.706126, "tags": {"amenity": "fast_food", "cuisine": "hot_dog", "name": "Strike coffee"}}, {"type": "node", "id": 9887090317, "lat": 60.094646, "lon": 29.9611072, "tags": {"addr:city": "\u0421\u0435\u0441\u0442\u0440\u043e\u0440\u0435\u0446\u043a", "addr:housenumber": "10\u0410", "addr:street": "\u0443\u043b\u0438\u0446\u0430 \u0412\u043e\u0441\u043a\u043e\u0432\u0430", "amenity": "bar", "brewery": "various", "contact:instagram": "bar_mossinn", "contact:vk": "https://vk.com/moss_inn", "cuisine": "burger;fish;sausage", "indoor_seating": "yes", "internet_access": "wlan", "name": "Moss inn", "name:en": "Moss inn", "opening_hours": "Su-Th 12:00-00:00, Fr-Sa 12:00-02:00", "outdoor_seating": "yes", "phone": "+7 812 9416370", "smoking": "outside"}}, {"type": "node", "id": 9887376717, "lat": 60.0917372, "lon": 29.9655143, "tags": {"amenity": "cafe", "cuisine": "kebab;pizza", "name:en": "Fusion", "opening_hours": "Mo-Su 11:00-23:00"}}, {"type": "node", "id": 9899533361, "lat": 59.985647, "lon": 29.79719, "tags": {"amenity": "fast_food", "contact:email": "info@eurokebab.ru", "contact:phone": "+7 906 2509527;+7 964 3369000", "contact:website": "https://eurokebab.ru", "cuisine": "kebab", "fast_food": "shawarma", "name": "\u0428\u0430\u0432\u0435\u0440\u043b\u044d\u043d\u0434", "name:en": "Shaverland", "name:ru": "\u0428\u0430\u0432\u0435\u0440\u043b\u044d\u043d\u0434", "opening_hours": "Mo-Su 05:00-04:00"}}, {"type": "node", "id": 9933266360, "lat": 60.1682786, "lon": 29.8255688, "tags": {"amenity": "restaurant", "contact:instagram": "https://instagram.com/muze_garden", "name": "Muze Garden", "opening_hours": "Th-Su 11:00-23:00", "website": "https://muzegarden.ru/"}}, {"type": "node", "id": 9942527917, "lat": 59.9936526, "lon": 29.7637532, "tags": {"amenity": "cafe", "name": "\u0422\u0440\u0434\u0435\u043b\u044c\u043d\u0438\u043a", "opening_hours": "Mo-Fr 08:00-21:00; Sa-Su 09:00-22:00"}}, {"type": "node", "id": 9942532817, "lat": 59.9944648, "lon": 29.7638285, "tags": {"amenity": "cafe", "name": "\u0421\u0442\u0440\u0435\u043b\u0435\u0446", "opening_hours": "Mo-Sa 11:00-23:00; Su 11:00-22:00", "phone": "+7 (931) 588-63-30", "website": "http://cafestrelets.ru"}}, {"type": "node", "id": 9951246017, "lat": 60.1808842, "lon": 29.8218601, "tags": {"amenity": "restaurant", "name": "Flamand Rose", "opening_hours": "Mo-Su 10:00-22:00", "phone": "+7 (812) 433-71-01"}}, {"type": "node", "id": 9967805788, "lat": 59.993864, "lon": 29.7469325, "tags": {"amenity": "restaurant", "contact:website": "https://vk.com/fortoria.restaurant", "name": "Fortoria"}}, {"type": "node", "id": 9968512467, "lat": 60.1851233, "lon": 29.8109386, "tags": {"entrance": "yes"}}, {"type": "node", "id": 9968512472, "lat": 60.1851914, "lon": 29.8107756, "tags": {"entrance": "yes"}}, {"type": "node", "id": 10003642581, "lat": 60.1485187, "lon": 29.9359967, "tags": {"amenity": "fast_food", "takeaway": "yes", "wheelchair": "no"}}, {"type": "node", "id": 10007184117, "lat": 60.1753863, "lon": 29.7979362, "tags": {"amenity": "restaurant", "check_date": "2023-04-21", "internet_access": "no", "name": "meat_coin", "name:en": "meat_coin", "opening_hours": "Mo-Th 12:00-23:00; Fr 12:00-01:00; Sa 11:00-01:00; Su 11:00-23:00", "payment:contactless": "yes", "payment:credit_cards": "yes", "payment:debit_cards": "yes", "payment:mastercard": "yes", "payment:mastercard_contactless": "yes", "payment:mir": "yes", "payment:nfc": "yes", "payment:visa": "yes", "payment:visa_contactless": "yes", "payment:visa_debit": "yes", "wheelchair": "limited"}}, {"type": "node", "id": 10734470179, "lat": 60.2056574, "lon": 29.703267, "tags": {"amenity": "fast_food", "cuisine": "shawarma", "name": "\u041f\u0440\u043e\u0441\u0442\u043e \u0412\u0430\u0441\u044f", "opening_hours": "07:00-05:00", "phone": "+7 (812) 241 14 49", "website": "https://prostovasya.ru"}}, {"type": "node", "id": 10734494633, "lat": 60.2056931, "lon": 29.7031941}, {"type": "node", "id": 10734494634, "lat": 60.2056532, "lon": 29.7031655}, {"type": "node", "id": 10734494635, "lat": 60.2056158, "lon": 29.7033419}, {"type": "node", "id": 10734494636, "lat": 60.2056558, "lon": 29.7033731}, {"type": "node", "id": 10760846425, "lat": 60.2025422, "lon": 29.7064247, "tags": {"amenity": "fast_food", "cuisine": "burger", "name": "Big burger"}}, {"type": "node", "id": 10760846426, "lat": 60.2049398, "lon": 29.7069838, "tags": {"amenity": "restaurant", "cuisine": "georgian;russian", "name": "\u041f\u043e\u043b\u0438\u0441", "opening_hours": "Mo-Th 11:00-02:00, Fr,Sa 11:00-04:00, Su 12:00-02:00"}}, {"type": "node", "id": 10795073855, "lat": 60.1882289, "lon": 29.7395002, "tags": {"amenity": "restaurant", "changing_table": "no", "cuisine": "balkan", "name": "\u0411\u0440\u0430\u0442\u0446\u044b \u041a\u0435\u0431\u0430\u0431\u0446\u044b", "opening_hours": "Mo-Su 12:00-23:00", "outdoor_seating": "yes", "toilets": "yes"}}, {"type": "node", "id": 10816325364, "lat": 60.0124959, "lon": 30.0120852, "tags": {"amenity": "cafe", "check_date": "2023-04-16", "name": "\u0414\u0430\u043b\u0438 \u0425\u0438\u043d\u043a\u0430\u043b\u0438", "payment:contactless": "yes", "payment:credit_cards": "yes", "payment:debit_cards": "yes", "payment:mastercard": "yes", "payment:mastercard_contactless": "yes", "payment:mir": "yes", "payment:nfc": "yes", "payment:visa": "yes", "payment:visa_contactless": "yes", "payment:visa_debit": "yes"}}, {"type": "node", "id": 10816325365, "lat": 60.012833, "lon": 30.0113841, "tags": {"amenity": "cafe", "check_date": "2023-04-16", "name": "\u041f\u0438\u0437\u0430", "opening_hours": "Tu-Su 12:00-21:00", "payment:contactless": "yes", "payment:credit_cards": "yes", "payment:debit_cards": "yes", "payment:mastercard": "yes", "payment:mastercard_contactless": "yes", "payment:mir": "yes", "payment:visa": "yes", "payment:visa_contactless": "yes", "payment:visa_debit": "yes"}}, {"type": "node", "id": 10832383014, "lat": 60.0146968, "lon": 30.0080452, "tags": {"amenity": "cafe", "check_date": "2023-04-22", "internet_access": "no", "name": "\u0415\u043b\u0438-\u041f\u0438\u043b\u0438", "opening_hours": "12:00-24:00", "payment:contactless": "yes", "payment:credit_cards": "yes", "payment:debit_cards": "yes", "payment:mastercard": "yes", "payment:visa": "yes", "wheelchair": "no"}}, {"type": "node", "id": 10889398414, "lat": 60.1502553, "lon": 29.9234651, "tags": {"addr:city": "\u0421\u043e\u043b\u043d\u0435\u0447\u043d\u043e\u0435", "addr:housenumber": "376\u0410", "addr:street": "\u041f\u0440\u0438\u043c\u043e\u0440\u0441\u043a\u043e\u0435 \u0448\u043e\u0441\u0441\u0435", "amenity": "restaurant", "cuisine": "japanese;kebab;sushi;regional", "name": "\u0427\u0430\u0431\u0440\u0435\u0446", "opening_hours": "Su-Th 11:00-23:00, Fr-Sa 11:00-02:00 || Fr-Sa 22:00-02:00 open \"karaoke hall\"", "phone": "+7 (812) 455 27 55", "website": "https://chegroup.ru/"}}, {"type": "node", "id": 10959453005, "lat": 60.1559495, "lon": 29.9897051, "tags": {"amenity": "cafe", "name": "\u0434\u0430\u0447\u0430"}}, {"type": "node", "id": 10976227011, "lat": 60.090877, "lon": 29.956648, "tags": {"amenity": "fast_food", "contact:email": "info@shaverland.ru", "contact:phone": "+7 906 2509527;+7 964 3369000", "contact:website": "https://shaverland.ru/", "cuisine": "shawarma", "name": "\u0428\u0430\u0432\u0435\u0440\u043b\u044d\u043d\u0434", "opening_hours": "Mo-Su 00:00-04:00,05:00-24:00"}}, {"type": "node", "id": 10982385942, "lat": 59.9948974, "lon": 29.7458708, "tags": {"addr:city": "\u041a\u0440\u043e\u043d\u0448\u0442\u0430\u0434\u0442", "addr:housenumber": "14", "addr:postcode": "197760", "addr:street": "\u0426\u0438\u0442\u0430\u0434\u0435\u043b\u044c\u0441\u043a\u043e\u0435 \u0448\u043e\u0441\u0441\u0435", "amenity": "fast_food", "contact:website": "https://vlavashe.ru/", "cuisine": "kebab", "name": "V\u041b\u0410V\u0410\u0428\u0415", "opening_hours": "Mo-Su 11:00-20:00", "phone": "+7 (812) 317 47 77"}}, {"type": "node", "id": 10982391452, "lat": 59.9948698, "lon": 29.7460688, "tags": {"amenity": "fast_food", "cuisine": "burger", "name": "Easy Burgers"}}, {"type": "node", "id": 10989404530, "lat": 60.0100622, "lon": 29.7216963, "tags": {"amenity": "cafe", "cuisine": "regional;kebab", "name": "\u041f\u0440\u043e\u0441\u0442\u043e \u0412\u0430\u0441\u044f", "opening_hours": "24/7", "phone": "+7 (812) 241 14 49", "website": "https://prostovasya.ru/"}}, {"type": "node", "id": 10994092414, "lat": 59.997785, "lon": 29.7684785, "tags": {"amenity": "fast_food", "cuisine": "kebab", "name": "\u041a\u0435\u0431\u0430\u0431.24"}}, {"type": "node", "id": 11097494233, "lat": 60.1998125, "lon": 29.70658, "tags": {"amenity": "fast_food", "check_date": "2023-08-07", "cuisine": "chicken", "internet_access": "no", "name": "\u0412\u043a\u0443\u0441\u043d\u043e \u0432 \u041b\u0430\u0432\u0430\u0448\u0435", "opening_hours": "09:00-21:00", "payment:contactless": "yes", "payment:mastercard": "yes", "payment:visa": "yes", "wheelchair": "no"}}, {"type": "node", "id": 11099657105, "lat": 60.1238399, "lon": 29.949498, "tags": {"amenity": "restaurant", "cuisine": "russian;juice", "internet_access:fee": "no", "level": "2", "name": "\u0441\u0442\u043e\u043b\u043e\u0432\u0430\u044f \u0441\u0430\u043d\u0430\u0442\u043e\u0440\u0438\u044f \u0414\u044e\u043d\u044b", "reservation": "no", "smoking": "no", "toilets": "yes", "wheelchair": "yes"}}, {"type": "node", "id": 11104674811, "lat": 59.988435, "lon": 29.7721284, "tags": {"amenity": "cafe", "contact:email": "loxnik888@gmail.com", "contact:phone": "+7 981 8918778", "contact:website": "https://cafe-blinok.qr-cafe.ru/", "name": "\u0411\u043b\u0438\u043d\u041e\u043a", "opening_hours": "Mo-Su 10:00-20:00"}}, {"type": "node", "id": 11125062680, "lat": 59.9907183, "lon": 29.7379705, "tags": {"amenity": "cafe"}}, {"type": "node", "id": 11136988429, "lat": 59.9949256, "lon": 29.7454271}, {"type": "node", "id": 11136988430, "lat": 59.9949162, "lon": 29.7454177}, {"type": "node", "id": 11136988431, "lat": 59.9949095, "lon": 29.745423}, {"type": "node", "id": 11136988432, "lat": 59.9949034, "lon": 29.7454391}, {"type": "node", "id": 11136988433, "lat": 59.9948317, "lon": 29.7458039}, {"type": "node", "id": 11136988434, "lat": 59.994831, "lon": 29.7458254}, {"type": "node", "id": 11136988435, "lat": 59.994835, "lon": 29.7458442}, {"type": "node", "id": 11136988436, "lat": 59.9948444, "lon": 29.7458576}, {"type": "node", "id": 11136988437, "lat": 59.9949484, "lon": 29.7459447}, {"type": "node", "id": 11136988438, "lat": 59.9949624, "lon": 29.7459447}, {"type": "node", "id": 11136988439, "lat": 59.9949753, "lon": 29.7459369}, {"type": "node", "id": 11136988440, "lat": 59.9949853, "lon": 29.7459206}, {"type": "node", "id": 11136988441, "lat": 59.9949919, "lon": 29.7458978}, {"type": "node", "id": 11136988442, "lat": 59.994996, "lon": 29.7458763}, {"type": "node", "id": 11136988443, "lat": 59.9949987, "lon": 29.7458442}, {"type": "node", "id": 11136988444, "lat": 59.9949913, "lon": 29.7455786}, {"type": "node", "id": 11136988445, "lat": 59.9949893, "lon": 29.7455424}, {"type": "node", "id": 11136988446, "lat": 59.9949785, "lon": 29.7455075}, {"type": "node", "id": 11136988463, "lat": 59.9948473, "lon": 29.7460284}, {"type": "node", "id": 11136988464, "lat": 59.9948089, "lon": 29.7462855}, {"type": "node", "id": 11136988465, "lat": 59.9947897, "lon": 29.7461969}, {"type": "node", "id": 11136988466, "lat": 59.9948085, "lon": 29.7460968}, {"type": "node", "id": 11136988482, "lat": 59.9948033, "lon": 29.7457195}, {"type": "node", "id": 11136988483, "lat": 59.9947626, "lon": 29.7457319}, {"type": "node", "id": 11136988484, "lat": 59.9949316, "lon": 29.7461208}, {"type": "node", "id": 11136988485, "lat": 59.9949001, "lon": 29.7463189}, {"type": "node", "id": 11136988486, "lat": 59.9949156, "lon": 29.7463036}, {"type": "node", "id": 11136988487, "lat": 59.9949286, "lon": 29.7462804}, {"type": "node", "id": 11136988488, "lat": 59.994938, "lon": 29.7462513}, {"type": "node", "id": 11136988489, "lat": 59.9949431, "lon": 29.7462181}, {"type": "node", "id": 11136988490, "lat": 59.9949437, "lon": 29.7461835}, {"type": "node", "id": 11136988491, "lat": 59.9949397, "lon": 29.7461505}, {"type": "node", "id": 11136988492, "lat": 59.9949199, "lon": 29.7460964}, {"type": "node", "id": 11136988493, "lat": 59.9949054, "lon": 29.7460788}, {"type": "node", "id": 11136988494, "lat": 59.9948035, "lon": 29.7459903}, {"type": "node", "id": 11136988495, "lat": 59.9948115, "lon": 29.7457623}, {"type": "node", "id": 11136988496, "lat": 59.9948099, "lon": 29.745739}, {"type": "node", "id": 11136988497, "lat": 59.9947951, "lon": 29.7457097}, {"type": "node", "id": 11136988498, "lat": 59.9947814, "lon": 29.745706}, {"type": "node", "id": 11136988499, "lat": 59.9947705, "lon": 29.7457147}, {"type": "node", "id": 11136988500, "lat": 59.9947592, "lon": 29.7457543}, {"type": "node", "id": 11136988501, "lat": 59.9947525, "lon": 29.7459984}, {"type": "node", "id": 11136988502, "lat": 59.9947565, "lon": 29.7460319}, {"type": "node", "id": 11136988503, "lat": 59.9947639, "lon": 29.7460574}, {"type": "node", "id": 11136988504, "lat": 59.994772, "lon": 29.7460668}, {"type": "node", "id": 11137052005, "lat": 59.9947847, "lon": 29.7460775}, {"type": "node", "id": 11137052013, "lat": 59.994783, "lon": 29.7462713}, {"type": "node", "id": 11137052014, "lat": 59.9947647, "lon": 29.7462626}, {"type": "node", "id": 11137052015, "lat": 59.9947463, "lon": 29.7462706}, {"type": "node", "id": 11137052016, "lat": 59.9947315, "lon": 29.7462938}, {"type": "node", "id": 11137052017, "lat": 59.9947232, "lon": 29.7463275}, {"type": "node", "id": 11137052018, "lat": 59.994723, "lon": 29.7463651}, {"type": "node", "id": 11137052019, "lat": 59.994731, "lon": 29.7463991}, {"type": "node", "id": 11137052020, "lat": 59.9947456, "lon": 29.7464228}, {"type": "node", "id": 11137052021, "lat": 59.9947639, "lon": 29.7464315}, {"type": "node", "id": 11137052022, "lat": 59.9947823, "lon": 29.7464235}, {"type": "node", "id": 11137052026, "lat": 59.9947976, "lon": 29.746295}, {"type": "node", "id": 11140840442, "lat": 59.9948684, "lon": 29.7456211, "tags": {"entrance": "yes"}}, {"type": "node", "id": 11140840443, "lat": 59.9947797, "lon": 29.7458006, "tags": {"amenity": "fast_food", "contact:website": "https://ronisdonuts.ru/", "cuisine": "donut", "name": "Roni's Donuts"}}, {"type": "node", "id": 11140840444, "lat": 59.9947767, "lon": 29.745928, "tags": {"amenity": "fast_food", "cuisine": "greek", "name": "Meze"}}, {"type": "node", "id": 11140840445, "lat": 59.9947882, "lon": 29.7457063}, {"type": "node", "id": 11140840469, "lat": 59.9948602, "lon": 29.7458395, "tags": {"amenity": "fast_food", "cuisine": "ramen", "name": "Old Kotlin"}}, {"type": "node", "id": 11140840470, "lat": 59.9949336, "lon": 29.7458965, "tags": {"amenity": "fast_food", "cuisine": "grill", "name": "\u0423\u0433\u043b\u0438\u0432\u043e\u0434\u044b"}}, {"type": "node", "id": 11147013181, "lat": 59.9954889, "lon": 29.7450811, "tags": {"amenity": "fast_food", "cuisine": "donut", "name": "\u0424\u043e\u0440\u0442\u043e\u0432\u0430\u044f \u043f\u044b\u0448\u0435\u0447\u043d\u0430\u044f"}}, {"type": "node", "id": 11147013182, "lat": 59.9954527, "lon": 29.7452621, "tags": {"amenity": "fast_food", "cuisine": "mediterranean", "name": "Stvorki"}}, {"type": "node", "id": 11147013183, "lat": 59.9954044, "lon": 29.7455263, "tags": {"amenity": "fast_food", "cuisine": "russian", "name": "\u0422\u0435\u0440\u0435\u043c\u043e\u043a"}}, {"type": "node", "id": 11148847251, "lat": 59.9957045, "lon": 29.7445017, "tags": {"amenity": "restaurant", "cuisine": "italian", "name": "Vento di Coda"}}, {"type": "node", "id": 11165851525, "lat": 60.1732053, "lon": 29.8070184, "tags": {"addr:city": "\u041a\u043e\u043c\u0430\u0440\u043e\u0432\u043e", "addr:housenumber": "481", "addr:street": "\u041f\u0440\u0438\u043c\u043e\u0440\u0441\u043a\u043e\u0435 \u0448\u043e\u0441\u0441\u0435", "amenity": "food_court", "contact:vk": "https://vk.com/public213762941", "name": "\u041b\u044e\u0431\u043e\u0432\u044c \u0415\u0434\u0430 \u041a\u043e\u043c\u0430\u0440\u043e\u0432\u043e", "opening_hours": "Mo-Fr 12:00-21:00, Sa-Su 11:00-22:00"}}, {"type": "node", "id": 11165851526, "lat": 60.0938664, "lon": 29.9559035, "tags": {"addr:city": "\u0421\u0435\u0441\u0442\u0440\u043e\u0440\u0435\u0446\u043a", "addr:housenumber": "5\u0411", "addr:street": "\u0443\u043b\u0438\u0446\u0430 \u041a\u043e\u043c\u043c\u0443\u043d\u0430\u0440\u043e\u0432", "amenity": "cafe", "name": "\u0411\u0443\u043b\u043a\u0430 \u0441 \u043a\u043e\u0442\u043b\u0435\u0442\u043e\u0439", "opening_hours": "11:00-21:00"}}, {"type": "node", "id": 11271099951, "lat": 60.0897305, "lon": 29.9541873, "tags": {"amenity": "cafe", "brand:wikidata": "Q110085956", "name": "\u041f\u0435\u043a\u0430\u0440\u043d\u044f \"\u0425\u043b\u0435\u0431\u043d\u0438\u043a\""}}, {"type": "way", "id": 59457972, "nodes": [737240109, 4822334812, 737240147, 4822297407, 4822334813, 4822334814, 4822334815, 4822297408, 4822334810, 4822297404, 4822334811, 737240136, 737240123, 737240109], "tags": {"addr:city": "\u0421\u0435\u0441\u0442\u0440\u043e\u0440\u0435\u0446\u043a", "addr:housenumber": "202", "addr:postcode": "197701", "addr:street": "\u041f\u0440\u0438\u043c\u043e\u0440\u0441\u043a\u043e\u0435 \u0448\u043e\u0441\u0441\u0435", "alt_name": "202", "amenity": "cafe", "building": "yes", "name": "\u0414\u0432\u0435\u0441\u0442\u0438 \u0434\u0432\u0430", "old_name": "\u0410\u043b\u0435\u043a\u0441\u0430\u043d\u0434\u0440\u0430"}}, {"type": "way", "id": 86342029, "nodes": [1003011040, 1003011005, 1003010994, 1003011033, 1003011017, 1003011052, 1003011038, 1003010981, 1003011057, 1003011040], "tags": {"addr:city": "\u041b\u0438\u0441\u0438\u0439 \u041d\u043e\u0441", "addr:country": "RU", "addr:housenumber": "38", "addr:postcode": "197755", "addr:street": "\u041b\u0435\u043d\u0438\u043d\u0433\u0440\u0430\u0434\u0441\u043a\u043e\u0435 \u0448\u043e\u0441\u0441\u0435", "amenity": "restaurant", "building": "yes", "building:levels": "3", "name": "\u041b\u0438\u0441\u044c\u044f \u043d\u043e\u0440\u0430", "source": "rgis"}}, {"type": "way", "id": 87333152, "nodes": [1015540836, 1015540599, 1015540666, 1015540770, 1015540578, 1015540686, 1015540651, 1015540790, 1015540836], "tags": {"addr:city": "\u0421\u043e\u043b\u043d\u0435\u0447\u043d\u043e\u0435", "addr:housenumber": "1", "addr:postcode": "197739", "addr:street": "\u0414\u0430\u0447\u043d\u0430\u044f \u0443\u043b\u0438\u0446\u0430", "amenity": "restaurant", "building": "yes", "building:architecture": "contemporary", "contact:vk": "https://vk.com/atlantisrest", "cuisine": "international", "delivery": "yes", "height": "7", "name": "\u0410\u0442\u043b\u0430\u043d\u0442\u0438\u0441", "name:en": "Atlantis", "opening_hours": "Mo-Su 12:00+", "outdoor_seating": "terrace", "phone": "+7 812 4329060", "start_date": "2005", "website": "https://atlantis.rest/"}}, {"type": "way", "id": 89677143, "nodes": [1039277266, 1039278033, 1039278831, 1039277106, 1039277266], "tags": {"amenity": "fast_food", "building": "yes", "cuisine": "oriental", "internet_access": "no", "internet_access:fee": "no", "name": "\u0428\u0430\u0432\u0435\u0440\u043c\u0430", "name:ru": "\u0428\u0430\u0432\u0435\u0440\u043c\u0430", "opening_hours": "Mo-Su 08:00-21:00", "smoking": "outside", "takeaway": "yes", "wheelchair": "no"}}, {"type": "way", "id": 92232311, "nodes": [1070738300, 1070738122, 1070737929, 1070737741, 1070738412, 1070737947, 1070738300], "tags": {"amenity": "restaurant", "building": "yes", "name": "\u0422\u0430\u0432\u0435\u0440\u043d\u0430"}}, {"type": "way", "id": 92718371, "nodes": [8958314036, 1075371412, 1075371565, 1075371040, 5013555758, 5013555755, 8958314036], "tags": {"addr:city": "\u0421\u043e\u043b\u043d\u0435\u0447\u043d\u043e\u0435", "addr:housenumber": "388\u0410", "addr:street": "\u041f\u0440\u0438\u043c\u043e\u0440\u0441\u043a\u043e\u0435 \u0448\u043e\u0441\u0441\u0435", "air_conditioning": "yes", "alt_name": "\u0422\u043e\u043a\u0438\u043e-\u0421\u0438\u0442\u0438", "amenity": "restaurant", "brand": "\u0422\u043e\u043a\u0438\u043e-\u0421\u0438\u0442\u0438", "brand:wikidata": "Q62758690", "building": "yes", "contact:phone": "+7 812 6778892", "contact:vk": "https://vk.com/club10958821", "contact:website": "https://www.tokyo-city.ru", "cuisine": "japanese;international;pizza", "delivery": "yes", "diet:vegetarian": "yes", "indoor_seating": "yes", "internet_access": "wlan", "internet_access:fee": "customers", "name": "\u0422\u043e\u043a\u0438\u043e-\u0421\u0438\u0442\u0438", "name:en": "\u0422\u041e\u041a\u0418\u041e-CITY", "name:ru": "\u0422\u041e\u041a\u0418\u041e-CITY", "opening_hours": "Su-Th 12:00-00:00,Fr-Sa 12:01:00", "outdoor_seating": "yes", "payment:cash": "yes", "payment:contactless": "yes", "payment:credit_cards": "yes", "payment:debit_cards": "yes", "payment:mastercard": "yes", "payment:visa": "yes", "reservation": "yes", "smoking": "no", "takeaway": "yes"}}, {"type": "way", "id": 92841170, "nodes": [1076686728, 1076686753, 1076686737, 1076686727, 1076686728], "tags": {"addr:city": "\u0421\u0435\u0441\u0442\u0440\u043e\u0440\u0435\u0446\u043a", "addr:housenumber": "1", "addr:postcode": "197706", "addr:street": "\u0443\u043b\u0438\u0446\u0430 \u0410\u043d\u0434\u0440\u0435\u0435\u0432\u0430", "amenity": "cafe", "building": "yes", "name": "\u0424\u043e\u0440\u0442\u0443\u043d\u0430", "phone": "+7 812 4343910", "smoking": "yes"}}, {"type": "way", "id": 115104733, "nodes": [1301932737, 1301932773, 1301932635, 1301932624, 1301932815, 1301932798, 1301932636, 1301932645, 1301932755, 1301932757, 1301932717, 1301932657, 1301932737], "tags": {"addr:city": "\u0421\u0435\u0441\u0442\u0440\u043e\u0440\u0435\u0446\u043a", "addr:housenumber": "319\u0410", "addr:street": "\u041f\u0440\u0438\u043c\u043e\u0440\u0441\u043a\u043e\u0435 \u0448\u043e\u0441\u0441\u0435", "amenity": "restaurant", "building": "yes", "name": "\u0420\u044b\u0431\u0430 \u043d\u0430 \u0414\u0430\u0447\u0435", "opening_hours": "12:00-23:00", "website": "https://probka.org/restaurants/ryba_na_dache"}}, {"type": "way", "id": 125818955, "nodes": [1396466926, 9672364981, 9672364982, 9672364980, 1396466925, 1396466924, 1396466923, 1396466926], "tags": {"addr:city": "\u0417\u0435\u043b\u0435\u043d\u043e\u0433\u043e\u0440\u0441\u043a", "addr:housenumber": "2 \u043b\u0438\u0442\u0410", "addr:street": "\u0413\u0430\u0432\u0430\u043d\u043d\u0430\u044f \u0443\u043b\u0438\u0446\u0430", "amenity": "restaurant", "building": "yes", "capacity": "100", "cuisine": "regional;seafood;asian;sushi;international;barbecue", "email": "pristan@yct.su", "internet_access": "yes", "name": "\u041f\u0440\u0438\u0441\u0442\u0430\u043d\u044c", "name:en": "Pristan", "outdoor_seating": "yes", "phone": "+78126110305", "website": "https://yct.su/"}}, {"type": "way", "id": 131750877, "nodes": [1449629916, 1449629915, 1449629903, 1449629906, 1449629916], "tags": {"addr:housenumber": "2", "addr:street": "\u0426\u0438\u0442\u0430\u0434\u0435\u043b\u044c\u0441\u043a\u0430\u044f \u0434\u043e\u0440\u043e\u0433\u0430", "amenity": "restaurant", "building": "commercial", "name": "Brew fort"}}, {"type": "way", "id": 140094601, "nodes": [1534936821, 1534936830, 1534936831, 1534936829, 1534936821], "tags": {"amenity": "cafe", "building": "yes", "name": "\u0423 \u041c\u0438\u0445\u0430\u043b\u044b\u0447\u0430"}}, {"type": "way", "id": 156925294, "nodes": [1691662850, 1691662834, 1691662823, 1691662837, 1691662838, 1691662842, 1691662850], "tags": {"amenity": "restaurant", "building": "yes", "name": "\u041a\u0430\u043d\u0442\u0440\u0438 \u0420\u0435\u0441\u0442\u043e\u0440\u0430\u043d"}}, {"type": "way", "id": 160829698, "nodes": [1728464052, 1728464089, 1728464100, 1728464096, 1728464104, 1728464092, 1728464082, 1728464069, 1728464074, 1728464078, 1728464085, 1728464072, 1728464052], "tags": {"addr:city": "\u0420\u0435\u043f\u0438\u043d\u043e", "addr:housenumber": "411\u0410", "addr:street": "\u041f\u0440\u0438\u043c\u043e\u0440\u0441\u043a\u043e\u0435 \u0448\u043e\u0441\u0441\u0435", "amenity": "restaurant", "building": "yes", "building:levels": "2", "cuisine": "regional", "name": "\u041f\u0435\u043d\u0430\u0442\u044b", "opening_hours": "Mo-Su 10:00-01:00"}}, {"type": "way", "id": 161542576, "nodes": [1735139603, 7884890139, 1735139598, 1735139596, 1735139597, 1735139599, 1735139600, 1735139601, 1735139604, 1735139602, 1735139603], "tags": {"addr:housenumber": "572\u0410", "addr:street": "\u041f\u0440\u0438\u043c\u043e\u0440\u0441\u043a\u043e\u0435 \u0448\u043e\u0441\u0441\u0435", "amenity": "restaurant", "building": "yes", "name": "\u0428\u0435\u043b\u0435\u0441\u0442", "opening_hours": "PH,Mo-Su 12:00-22:00"}}, {"type": "way", "id": 164034631, "nodes": [1756956283, 1756956293, 1756956296, 1756956284, 1756956283], "tags": {"addr:city": "\u0421\u0435\u0441\u0442\u0440\u043e\u0440\u0435\u0446\u043a", "addr:housenumber": "256", "addr:postcode": "197701", "addr:street": "\u041f\u0440\u0438\u043c\u043e\u0440\u0441\u043a\u043e\u0435 \u0448\u043e\u0441\u0441\u0435", "amenity": "restaurant", "building": "yes", "cuisine": "georgian", "name": "Marani", "opening_hours": "Mo-Su 12:00-24:00", "phone": "+78129246677", "website": "https://marani-rest.ru/v-sankt-peterburge/"}}, {"type": "way", "id": 169771618, "nodes": [1809294134, 1809294190, 8960216555, 8960216554, 1809294132, 8960216556, 8960216557, 1809294176, 8960216562, 1809294134], "tags": {"addr:housenumber": "452\u0410", "addr:street": "\u041f\u0440\u0438\u043c\u043e\u0440\u0441\u043a\u043e\u0435 \u0448\u043e\u0441\u0441\u0435", "amenity": "restaurant", "building": "yes", "building:levels": "2", "name": "\u0420\u0443\u0441\u0441\u043a\u0430\u044f \u0440\u044b\u0431\u0430\u043b\u043a\u0430"}}, {"type": "way", "id": 194250987, "nodes": [2047710924, 2047710887, 2047710921, 2047710861, 2047710924], "tags": {"amenity": "cafe", "building": "pavilion", "building:levels": "1", "name": "\u041b\u0435\u0442\u043d\u0435\u0435 \u043a\u0430\u0444\u0435"}}, {"type": "way", "id": 200168822, "nodes": [2101651753, 2101651747, 2101651760, 2101651762, 2101651753], "tags": {"addr:city": "\u0420\u0435\u043f\u0438\u043d\u043e", "addr:housenumber": "415", "addr:street": "\u041f\u0440\u0438\u043c\u043e\u0440\u0441\u043a\u043e\u0435 \u0448\u043e\u0441\u0441\u0435", "amenity": "restaurant", "building": "yes", "cuisine": "regional", "name": "\u0421\u043a\u0430\u0437\u043a\u0430", "opening_hours": "Mo-Su 11:00-24:00", "phone": "+7 812 4321251"}}, {"type": "way", "id": 200177748, "nodes": [2101737497, 2101737483, 2101737479, 2101737494, 2101737497], "tags": {"addr:city": "\u0420\u0435\u043f\u0438\u043d\u043e", "addr:housenumber": "422\u0410", "addr:street": "\u041f\u0440\u0438\u043c\u043e\u0440\u0441\u043a\u043e\u0435 \u0448\u043e\u0441\u0441\u0435", "amenity": "restaurant", "building": "yes", "cuisine": "regional", "email": "info@runo.spb.ru", "internet_access": "wlan", "name": "Runo.ru", "opening_hours": "Mo-Su 11:00-01:00", "phone": "+7 812 9222220", "website": "https://runo.spb.ru/"}}, {"type": "way", "id": 200177750, "nodes": [2101737490, 2101737493, 2101737492, 2101737488, 2101737490], "tags": {"addr:city": "\u0420\u0435\u043f\u0438\u043d\u043e", "addr:housenumber": "422\u0410", "addr:street": "\u041f\u0440\u0438\u043c\u043e\u0440\u0441\u043a\u043e\u0435 \u0448\u043e\u0441\u0441\u0435", "amenity": "cafe", "building": "yes", "name": "\u041a\u0430\u043c\u0438\u043d \u0432 \u0420\u0435\u043f\u0438\u043d\u043e", "phone": "+7 921 9263099"}}, {"type": "way", "id": 222291907, "nodes": [2312744994, 2312744999, 2312745000, 2312744996, 2312744994], "tags": {"amenity": "cafe", "building": "yes", "name": "\u0410\u043a\u0432\u0430\u0442\u043e\u0440\u0438\u044f", "name:ru": "\u0410\u043a\u0432\u0430\u0442\u043e\u0440\u0438\u044f"}}, {"type": "way", "id": 233319488, "nodes": [2417069310, 2417069311, 2417069309, 2417069308, 2417069310], "tags": {"addr:city": "\u0421\u0435\u0441\u0442\u0440\u043e\u0440\u0435\u0446\u043a", "addr:housenumber": "264\u0410", "addr:postcode": "197706", "addr:street": "\u041f\u0440\u0438\u043c\u043e\u0440\u0441\u043a\u043e\u0435 \u0448\u043e\u0441\u0441\u0435", "alt_name": "Kentucky Fried Chicken", "amenity": "fast_food", "brand": "KFC", "brand:wikidata": "Q524757", "brand:wikipedia": "en:KFC", "building": "commercial", "building:levels": "1", "cuisine": "chicken", "drive_through": "yes", "email": "kfc@rim-pn.ru", "indoor_seating": "yes", "internet_access": "wlan", "name": "Rostic`s", "opening_hours": "Mo-Su 08:00-23:00", "opening_hours:drive_through": "24/7", "operator": "KFC International Holdings Inc.", "outdoor_seating": "yes", "phone": "+7 965 0035315", "smoking": "no", "takeaway": "yes", "website": "http://www.kfc.ru/"}}, {"type": "way", "id": 236102247, "nodes": [2441660513, 2441660515, 2441660509, 5916633253, 2441660506, 2441660513], "tags": {"amenity": "cafe", "building": "yes", "building:levels": "1", "check_date:opening_hours": "2023-06-19", "indoor_seating": "yes", "name": "\u041c\u0435\u0441\u0442\u043e \u0432\u0441\u0442\u0440\u0435\u0447\u0438", "opening_hours": "Mo-Th 08:00-22:00; Fr 08:00-23:00; Sa,Su 09:00-23:00", "outdoor_seating": "no"}}, {"type": "way", "id": 358588254, "nodes": [3634959478, 3634959476, 3634959480, 3634959483, 3634959478], "tags": {"addr:city": "\u0421\u0435\u0441\u0442\u0440\u043e\u0440\u0435\u0446\u043a", "addr:housenumber": "28", "addr:postcode": "197701", "addr:street": "\u0443\u043b\u0438\u0446\u0430 \u041c\u043e\u0441\u0438\u043d\u0430", "amenity": "restaurant", "building": "yes", "cuisine": "regional", "name": "\u0423\u0441\u0430\u0434\u044c\u0431\u0430", "opening_hours": "11:00-23:00"}}, {"type": "way", "id": 437063056, "nodes": [4348956322, 4348956323, 4348956324, 4348956325, 4348956322], "tags": {"amenity": "cafe", "building": "yes", "indoor_seating": "yes", "name": "\u0412\u043a\u0443\u0441\u043d\u043e\u0435 \u043c\u044f\u0441\u043e", "opening_hours": "Mo-Fr 11:00-20:00; Sa,Su 11:00-22:00", "outdoor_seating": "yes", "payment:credit_cards": "yes", "payment:debit_cards": "yes", "wheelchair": "limited"}}, {"type": "way", "id": 512104732, "nodes": [5007800596, 5007800597, 5007800598, 5007800599, 5007800600, 5007800601, 5007800602, 5007800603, 5007800604, 5007800605, 5007800606, 5007800607, 5007800596], "tags": {"amenity": "restaurant", "building": "yes"}}, {"type": "way", "id": 698302643, "nodes": [6558046555, 6558046556, 6558046557, 6558046558, 6558046559, 6558046560, 8914782887, 6558046561, 6558046555], "tags": {"addr:housenumber": "11 \u043a1 \u04419", "addr:postcode": "197739", "addr:street": "\u0422\u0430\u043c\u043e\u0436\u0435\u043d\u043d\u0430\u044f \u0434\u043e\u0440\u043e\u0433\u0430", "amenity": "restaurant", "building": "retail", "building:levels": "1", "contact:instagram": "https://www.instagram.com/rest.vnutri", "description": "\u041a\u043e\u0440\u043f\u0443\u0441 27", "diet:vegan": "yes", "diet:vegetarian": "only", "energy_class": "B", "name": "\u0425\u043e\u0440\u043e\u0448\u0438\u0435 \u041b\u044e\u0434\u0438 \u0412\u043d\u0443\u0442\u0440\u0438", "opening_hours": "Mo-Su 10:00-23:00", "start_date": "2017-12-29", "wheelchair": "yes"}}, {"type": "way", "id": 708493367, "nodes": [6657585836, 6657585837, 8949273764, 8949273763, 6657585838, 6657585839, 6657585836], "tags": {"addr:city": "\u0420\u0435\u043f\u0438\u043d\u043e", "addr:housenumber": "450", "addr:street": "\u041f\u0440\u0438\u043c\u043e\u0440\u0441\u043a\u043e\u0435 \u0448\u043e\u0441\u0441\u0435", "amenity": "restaurant", "building": "yes", "name": "\u041a\u043e\u043b\u043e\u043a\u043e\u043b\u044c\u043d\u0430\u044f \u0413\u043e\u0440\u043a\u0430", "outdoor_seating": "yes"}}, {"type": "way", "id": 744348125, "nodes": [6966593883, 1074178594, 6966593884, 6966593885, 9968512467, 6966593886, 9968512472, 6966593883], "tags": {"addr:city": "\u041a\u043e\u043c\u0430\u0440\u043e\u0432\u043e", "addr:housenumber": "3\u0411", "addr:street": "2-\u044f \u0414\u0430\u0447\u043d\u0430\u044f \u0443\u043b\u0438\u0446\u0430", "amenity": "pub", "brewery": "various", "building": "yes", "cuisine": "barbecue;burger;georgian;hot_dog;ice_cream;international;italian;pizza;russian", "internet_access": "no", "name": "\u0421\u0435\u043b\u044c\u0441\u043a\u0438\u0439 \u043f\u0430\u0431", "opening_hours": "11:00-23:00", "outdoor_seating": "yes", "payment:cash": "yes", "payment:mastercard": "yes", "payment:visa": "yes", "phone": "+7 921 9655544", "smoking": "outside", "takeaway": "yes"}}, {"type": "way", "id": 814792767, "nodes": [1492328296, 1492328303, 1492328302]}, {"type": "way", "id": 814792768, "nodes": [1492328295, 1492328296]}, {"type": "way", "id": 814792919, "nodes": [7610709163, 1492328295]}, {"type": "way", "id": 814792920, "nodes": [7610709163, 7610709162, 8815224221, 8815224222, 8815224223, 7610709161, 8815224224, 7610709160, 8815224225, 7610709159, 7610709158, 1492328302]}, {"type": "way", "id": 829250371, "nodes": [7740459355, 7740459356, 7740459357, 7740459358, 7740459359, 7740459360, 7740459361, 7740459362, 7740459363, 7740459364, 7740459365]}, {"type": "way", "id": 845154232, "nodes": [7884874961, 7884874962, 7884874963, 7884874964, 7884874961], "tags": {"amenity": "fast_food", "building": "yes", "cuisine": "kebab", "drive_through": "no", "name": "\u0428\u0430\u0432\u0435\u0440\u043c\u0430"}}, {"type": "way", "id": 947691443, "nodes": [7740459355, 7740459354, 7740459368, 7740459349, 7740459348, 7740459365], "tags": {"barrier": "retaining_wall", "height": "1"}}, {"type": "way", "id": 1154216068, "nodes": [10734494633, 10734494634, 10734494635, 10734494636, 10734494633], "tags": {"amenity": "fast_food", "building": "yes", "name": "\u041f\u0440\u043e\u0441\u0442\u043e \u0412\u0430\u0441\u044f", "opening_hours": "07:00-05:00", "phone": "+7 (812) 241 14 49", "website": "https://prostovasya.ru"}}, {"type": "way", "id": 1201168672, "nodes": [11136988441, 11136988440, 11136988439, 11136988438, 11136988437, 11136988436, 11136988435, 11136988434, 11136988433, 11140840442, 11136988432, 11136988431, 11136988430]}, {"type": "way", "id": 1201168677, "nodes": [11136988501, 11136988502, 11136988503, 11136988504, 11137052005, 11136988466, 11136988465, 11136988464, 11137052026]}, {"type": "way", "id": 1201168680, "nodes": [11136988493, 11136988492, 11136988484, 11136988491, 11136988490, 11136988489], "tags": {"barrier": "wall", "colour": "#B76C50", "height": "3", "width": "0.1"}}, {"type": "way", "id": 1201168682, "nodes": [11137052018, 11137052017, 11137052016, 11137052015, 11137052014, 11137052013, 11137052026]}, {"type": "way", "id": 1201649653, "nodes": [11136988463, 11136988493]}, {"type": "way", "id": 1201649654, "nodes": [11140840445, 11136988497, 11136988482, 11136988496, 11136988495, 11136988494, 11136988463]}, {"type": "way", "id": 1201649655, "nodes": [11136988501, 11136988500, 11136988483, 11136988499, 11136988498, 11140840445]}, {"type": "way", "id": 1202543869, "nodes": [11137052022, 11137052021, 11137052020, 11137052019, 11137052018]}, {"type": "way", "id": 1202543870, "nodes": [11136988488, 11136988487, 11136988486, 11136988485, 11137052022], "tags": {"barrier": "wall", "colour": "#B76C50", "height": "3", "width": "0.1"}}, {"type": "way", "id": 1202543871, "nodes": [11136988430, 11136988429, 11136988446, 11136988445, 11136988444, 11136988443]}, {"type": "way", "id": 1202611741, "nodes": [11136988489, 11136988488], "tags": {"barrier": "wall", "colour": "#B76C50", "height": "3", "width": "0.1"}}, {"type": "way", "id": 1202611742, "nodes": [11136988443, 11136988442, 11136988441]}, {"type": "relation", "id": 11192094, "members": [{"type": "way", "ref": 814792920, "role": "outer"}, {"type": "way", "ref": 814792919, "role": "outer"}, {"type": "way", "ref": 814792768, "role": "outer"}, {"type": "way", "ref": 814792767, "role": "outer"}], "tags": {"amenity": "fast_food", "brand": "\u0411\u0443\u0440\u0433\u0435\u0440 \u041a\u0438\u043d\u0433", "brand:en": "Burger King", "brand:ru": "\u0411\u0443\u0440\u0433\u0435\u0440 \u041a\u0438\u043d\u0433", "brand:wikidata": "Q177054", "building": "retail", "building:levels": "1", "contact:email": "FeedBack@burgerking.ru", "contact:phone": "+7 495 5445000", "contact:website": "https://burgerkingrus.ru/", "cuisine": "burger", "name": "\u0411\u0443\u0440\u0433\u0435\u0440 \u041a\u0438\u043d\u0433", "name:en": "Burger King", "name:ru": "\u0411\u0443\u0440\u0433\u0435\u0440 \u041a\u0438\u043d\u0433", "opening_hours": "Mo-Su 08:00-23:00", "operator": "\u0411\u0423\u0420\u0413\u0415\u0420 \u0420\u0423\u0421", "roof:levels": "0", "takeaway": "yes", "type": "multipolygon"}}, {"type": "relation", "id": 12762885, "members": [{"type": "way", "ref": 947691443, "role": "outer"}, {"type": "way", "ref": 829250371, "role": "outer"}], "tags": {"addr:housenumber": "428\u0410", "addr:street": "\u041f\u0440\u0438\u043c\u043e\u0440\u0441\u043a\u043e\u0435 \u0448\u043e\u0441\u0441\u0435", "amenity": "restaurant", "cuisine": "regional", "internet_access": "yes", "name": "\u041f\u0430\u043d\u043e\u0440\u0430\u043c\u0430", "opening_hours": "Mo-Su 12:00-24:00", "phone": "+7 812 9255014", "type": "multipolygon", "website": "https://restoranpanorama.ru/"}}, {"type": "relation", "id": 16238023, "members": [{"type": "way", "ref": 1202611742, "role": "outer"}, {"type": "way", "ref": 1202543871, "role": "outer"}, {"type": "way", "ref": 1201168672, "role": "outer"}, {"type": "way", "ref": 1202543870, "role": "outer"}, {"type": "way", "ref": 1202611741, "role": "outer"}, {"type": "way", "ref": 1201168680, "role": "outer"}, {"type": "way", "ref": 1201649653, "role": "outer"}, {"type": "way", "ref": 1201649654, "role": "outer"}, {"type": "way", "ref": 1201649655, "role": "outer"}, {"type": "way", "ref": 1201168677, "role": "outer"}, {"type": "way", "ref": 1201168682, "role": "outer"}, {"type": "way", "ref": 1202543869, "role": "outer"}], "tags": {"amenity": "food_court", "type": "multipolygon"}}]}